{"type":"FeatureCollection","features":[{"type":"Feature","properties":{"date":"April 21, 2025","status":"Pre-flood reference","mapped_area_km2":15.09},"geometry":{"type":"Polygon","coordinates":[[[6.776611881034143,7.836138226442526],[6.776395174658798,7.83605221127726],[6.776523020883138,7.8357252953603584],[6.776612840623245,7.835957451024134],[6.776794120930975,7.835958407890406],[6.776975401261491,7.835959364678811],[6.776974441828553,7.836140140141885],[6.777214560344369,7.836262869319028],[6.777335084092227,7.836503604540314],[6.777516364725479,7.836504561162127],[6.777515405458331,7.836685336687258],[6.778417973622306,7.837413221270214],[6.778599254782893,7.837414177536417],[6.7785982958702355,7.837594953187174],[6.7787795771317265,7.837595909397818],[6.778778618274361,7.837776685069254],[6.778959899636756,7.837777641224337],[6.778958940834684,7.837958416916407],[6.7794989507939105,7.838684388000735],[6.779680232638029,7.838685343955848],[6.779679274034381,7.838866119728817],[6.779860555979407,7.838867075628344],[6.7798595974310745,7.839047851422006],[6.779858638859946,7.8392286272139975],[6.780039920983993,7.839229583080248],[6.780038962468187,7.839410358892868],[6.780038003929588,7.839591134703839],[6.780219286232681,7.839592090536807],[6.780218327749409,7.8397728663684445],[6.780397693274699,7.840135373848647],[6.780578975857695,7.840136329592721],[6.780578437301753,7.84023791441604],[6.7886106591635595,7.840255292229525],[6.788478156542526,7.840144353519109],[6.78870238249128,7.839554701720699],[6.788919908814407,7.839818655805218],[6.789101192310151,7.839819607843121],[6.789100237632093,7.840000384763917],[6.789281521228682,7.840001336746131],[6.789280566606051,7.840182113687457],[6.789427190267527,7.840257050220129],[6.789824032710234,7.84025790404937],[6.789824417766356,7.840184969233286],[6.789643134023552,7.840184017462587],[6.789644088489934,7.840003240476833],[6.78946280484795,7.840002288650436],[6.78946375936976,7.839821511685211],[6.789223633547921,7.839698787945175],[6.789103101598168,7.839458053996528],[6.788701306885748,7.8393749686225025],[6.78838178792979,7.838731138197719],[6.788200504993546,7.838730185981541],[6.7882014599032585,7.8385494091601915],[6.788020177067833,7.838548456888349],[6.788021132032944,7.8383676800875834],[6.78685784307415,7.837357551544927],[6.785857209772931,7.836186928480174],[6.785675928248149,7.836185975484977],[6.785676883933118,7.83600519895173],[6.7854956025091555,7.836004245900913],[6.7854965582494735,7.835823469388238],[6.785315276926369,7.8358225162818105],[6.78531623272203,7.835641739789701],[6.785134951499682,7.835640786627665],[6.785135907350684,7.835460010156175],[6.784954626229174,7.835459056938527],[6.784955582135513,7.835278280487629],[6.784774301114821,7.835277327214381],[6.784775257076492,7.835096550784102],[6.78417886368352,7.834681274179166],[6.784054914562074,7.834188855270421],[6.78306895615339,7.833363430053147],[6.782102152738441,7.832800770280119],[6.781888163649829,7.832550422970486],[6.781167709124194,7.832424469149607],[6.780983681059335,7.832184098903219],[6.780621122696284,7.8321821896112604],[6.780622080066296,7.832001413665179],[6.780338911165112,7.831921169895773],[6.779338927722716,7.8311736412724064],[6.778997275131305,7.830727387935948],[6.778572936170063,7.830616405573485],[6.778275036534271,7.8301812393176915],[6.778093758541647,7.8301802837888035],[6.778094716753317,7.8299995081368206],[6.777560485843421,7.829627503261727],[6.776914404177961,7.828683702935304],[6.776834399783191,7.828365837876714],[6.776653122753202,7.828364881948778],[6.776654081360781,7.828184106458846],[6.776220882186959,7.827882451005751],[6.7761140857798905,7.827458136567106],[6.775900394208498,7.827309335028234],[6.775474736887299,7.826687524461676],[6.775394733616069,7.8263696595152705],[6.775213457626665,7.82636870321093],[6.775214416607019,7.826187927881502],[6.774933652523966,7.826044423035945],[6.77485474212458,7.825643689220144],[6.77467346651561,7.825642732771944],[6.774674425638528,7.825461957502926],[6.774353893417116,7.8252387540235775],[6.77385476628195,7.824509612883129],[6.7737747642758395,7.82419174806064],[6.773494002101165,7.824048242757305],[6.77341509299144,7.82364750912917],[6.772981900857926,7.823345852257323],[6.772875107821792,7.822921538159174],[6.772161888985202,7.822366505930632],[6.771612909241588,7.821649413322195],[6.771180738051861,7.821536374926987],[6.769937155886854,7.820707368943543],[6.76980786060112,7.820193638616657],[6.769626587970855,7.8201926806634985],[6.76962754859012,7.820011905971471],[6.769338741480921,7.819864282247669],[6.769268846425528,7.819286891271444],[6.769270767723836,7.818925341958786],[6.769089495707635,7.818924383929428],[6.769092377717059,7.81838206001524],[6.769273649499557,7.81838301797735],[6.7692746100456676,7.818202243313513],[6.769455881773146,7.818203201175523],[6.769637153523541,7.818204158959846],[6.769638113890961,7.818023384249539],[6.769819385586356,7.8180243419337705],[6.770181929045822,7.818026257069174],[6.77036320080989,7.8180272145203515],[6.770544472596825,7.818028171893846],[6.770625617616511,7.817928210979813],[6.7716228293246,7.817237022199828],[6.772083466107319,7.816489666636507],[6.772649139647866,7.816151089775909],[6.772811427892905,7.815951166608024],[6.773013599489986,7.8157914517357066],[6.773175887413411,7.815591528336432],[6.773803183656588,7.815331805685625],[6.774643443869642,7.81544053572382],[6.774999249095018,7.815234472810329],[6.776256435842618,7.81580854163523],[6.777186795483988,7.816014418473873],[6.778102952429083,7.816753069194581],[6.778060411769795,7.817080011226526],[6.778264014676304,7.817429629738771],[6.778223457650363,7.817741327749297],[6.7790604469623315,7.8187961843030624],[6.779241720157298,7.818797138036954],[6.7792407638272305,7.818977913925878],[6.779603310441343,7.818979821205205],[6.779602354244295,7.819160597137077],[6.77996252137258,7.819344684988596],[6.780143306543458,7.8197057855268],[6.780324580264745,7.8197067389060555],[6.780323624288186,7.819887514920538],[6.780504898110132,7.819888468244398],[6.780503942188704,7.820069244279503],[6.780685216111352,7.820070197547959],[6.780684260245058,7.820250973603728],[6.780865534268428,7.820251926816775],[6.7808645784572725,7.820432702893204],[6.781045852581344,7.820433656050843],[6.781044896825333,7.8206144321478295],[6.781226171050104,7.820615385250055],[6.781225215349239,7.820796161367756],[6.781406489674711,7.820797114414566],[6.7814055340289965,7.8209778905528795],[6.781586808455151,7.820978843544267],[6.781585852864589,7.821159619703195],[6.781767127391465,7.821160572639159],[6.78176617185606,7.8213413488187395],[6.781947446483638,7.821342301699275],[6.781946491003395,7.821523077899479],[6.7821277657316745,7.821524030724582],[6.782309040482723,7.821524983471961],[6.782308085135577,7.821705759715102],[6.782489359987305,7.821706712407045],[6.782488404695331,7.821887488670791],[6.782669679647779,7.821888441307293],[6.7828509546229885,7.82188939386607],[6.782849999464126,7.822070170172698],[6.7830312745400345,7.822071122676025],[6.783030319436354,7.82225189900329],[6.78321159461296,7.822252851451171],[6.783210639564462,7.822433627799071],[6.783391914841766,7.822434580191497],[6.783573190141806,7.822435532506191],[6.783572235226439,7.822616308896957],[6.783753510627196,7.822617261156194],[6.783752555767022,7.822798037567532],[6.783933831268496,7.8227989897713055],[6.783932876463519,7.822979766203291],[6.78411415206565,7.822980718351599],[6.784295427690547,7.822981670422165],[6.78429447301872,7.823162446897007],[6.784475748744314,7.8231633989121026],[6.784474794127694,7.823344175407566],[6.784656069953962,7.823345127367187],[6.78465511539255,7.823525903883251],[6.784836391319534,7.8235268557873905],[6.784835436813337,7.8237076323240755],[6.785016712841016,7.823708584172735],[6.785015758390036,7.8238893607299955],[6.785197034518411,7.823890312523165],[6.785378310669544,7.823891264238592],[6.785377356351743,7.8240720408386855],[6.78555863260351,7.8240729924986185],[6.785557678340934,7.82425376911932],[6.785920231068667,7.824255672250446],[6.7859192769392855,7.824436448914011],[6.786100553415209,7.824437400385198],[6.786099599341064,7.824618177069332],[6.78628087591768,7.82461912848501],[6.786462152517023,7.824620079822936],[6.786461198576084,7.824800856549858],[6.786823751998853,7.824802759036933],[6.786822798191127,7.8249835358067195],[6.787366628729613,7.82498638902088],[6.78736567513308,7.825167165855692],[6.787546952102645,7.825168116793798],[6.787728229094903,7.825169067654147],[6.7877272756316,7.825349844531786],[6.788089829840232,7.8253517460636575],[6.788452384139693,7.825353647284488],[6.788451430965579,7.825534424249373],[6.788632708227321,7.825535374765369],[6.788813985511784,7.825536325203602],[6.788813032470921,7.825717102211291],[6.788994309856081,7.825718052593978],[6.7891755872639,7.825719002898904],[6.789174634356294,7.825899779949347],[6.789537189395996,7.825901680370328],[6.789536236621656,7.82608245746352],[6.789898791908108,7.826084357617855],[6.7898978392670415,7.8262651347538235],[6.790260394800216,7.826267034641498],[6.790259442292428,7.8264478118202225],[6.790440720171049,7.8264487616696075],[6.790621998072293,7.8264497114412235],[6.7907073572012315,7.826172262795174],[6.791629066871459,7.825828970718232],[6.792445535876326,7.825380279505665],[6.793437938638846,7.824017168050448],[6.794110168474841,7.823445706701756],[6.795124479786985,7.822819502553465],[6.795634282058502,7.822595833487953],[6.796328488649847,7.822110397681967],[6.796741154390614,7.821460953652848],[6.797450577293029,7.8215215284287565],[6.798347608531283,7.821150290733953],[6.799430685359067,7.820959099381123],[6.800047285804717,7.821011745839202],[6.800340634174366,7.821354912766507],[6.8012596295968955,7.82152704062092],[6.801609372414502,7.821724036317026],[6.8019771264974604,7.8216964950828975],[6.802611330792652,7.821750640859006],[6.803415117234154,7.8216904431594445],[6.803421109888409,7.819007450302781],[6.803353960042595,7.819003108207496],[6.80202040329716,7.818518075549168],[6.800292322305371,7.817569905691933],[6.799237295008544,7.817319306013281],[6.798102202570329,7.817380836444879],[6.797375211064047,7.817333818057938],[6.7960637778452995,7.8175591787414245],[6.795205049123792,7.817503634634069],[6.794575435007935,7.816793446255407],[6.793883501166124,7.816576401618994],[6.792852466365789,7.817364631989359],[6.792039658523553,7.817312052653152],[6.791245665838475,7.8178589910617395],[6.790576756848191,7.817491948392945],[6.790315279129384,7.817780726351786],[6.7886940499614505,7.818710687040411],[6.78802240289597,7.819013855428561],[6.7869456838633395,7.8198369830261365],[6.785896904646394,7.820587658949546],[6.784524563731146,7.821079583822464],[6.783956490938922,7.820438780590025],[6.783366410243283,7.819907394815503],[6.782789341177119,7.818991924895179],[6.782520153271965,7.817809958035083],[6.782625330457001,7.816193596660814],[6.78260562599606,7.815831930505192],[6.782652864155948,7.815105949842777],[6.7830023977658325,7.812892840387183],[6.782985345310361,7.812579859141827],[6.783023502264619,7.811993408028533],[6.7833907531558255,7.810322267913752],[6.784865261816214,7.810055793344035],[6.784810669659688,7.809053699441737],[6.784098031670496,7.807890460621733],[6.783575656406548,7.806739473911419],[6.783396701624593,7.80531733358043],[6.78366475608646,7.805080991266714],[6.7837885372449245,7.804840127197376],[6.784873369106019,7.804967274295044],[6.785114899513925,7.805088589887257],[6.785020269212616,7.8047849780805985],[6.783916696329933,7.803879635391573],[6.782948548524125,7.803417744034015],[6.781590526921934,7.802452230250625],[6.780875273093774,7.801899243829102],[6.779857884453539,7.801146787322426],[6.7766313364538755,7.797520913467036],[6.775605698241833,7.796172372231592],[6.772955050129311,7.791372356923361],[6.771194869213469,7.788210788149601],[6.770974314710085,7.787572450720265],[6.77088859484059,7.7872973814728015],[6.770674922265667,7.787148584683629],[6.770109952267406,7.78632320858662],[6.769989952460388,7.785846413084069],[6.769808694600852,7.785845459388656],[6.769810607118024,7.785483909372922],[6.769629349436498,7.785482955644969],[6.769631262017243,7.785121405667457],[6.769350524363013,7.784977905125728],[6.769271616197894,7.784577173224896],[6.769090358972818,7.784576219376948],[6.76909227178998,7.784214669517332],[6.768803486015925,7.784067049436958],[6.768733583698662,7.783489662119399],[6.76844479854458,7.783342041966029],[6.768374896573262,7.782764654744316],[6.768188583798509,7.782648805417356],[6.7677308552298445,7.781268148425498],[6.767592838769173,7.780479323917424],[6.767371180300396,7.779978750801275],[6.767308406874404,7.778781885271879],[6.767309363336779,7.778601110514233],[6.76712810892179,7.778600156555804],[6.7671348040593085,7.777334733363085],[6.766944258432716,7.777163118582462],[6.7666511552955235,7.776198419642247],[6.7653449382765265,7.773019001603696],[6.764891283300806,7.772175791000962],[6.764569157239266,7.771465922468015],[6.764450454942155,7.770812537206629],[6.764279896952071,7.770658924521952],[6.762833776819105,7.767472101522692],[6.762222972601183,7.764558833630632],[6.761853100177967,7.764024721387866],[6.761684014648363,7.763652099233215],[6.761314143506878,7.763117986920112],[6.761001955859561,7.762430007423582],[6.760415567631981,7.761667020688401],[6.760246483882441,7.761294398553413],[6.7600559472886745,7.761122788931764],[6.759856272482004,7.760897506480964],[6.759889293743947,7.760390072483373],[6.759672260150964,7.75977660963157],[6.759714511782638,7.759127334160617],[6.7596997441329405,7.758856087830221],[6.759729143024007,7.758404295121007],[6.759709266177015,7.758039200825128],[6.760314825321761,7.7561103959988005],[6.761278026928569,7.7552610840752845],[6.762178387036278,7.754891992130082],[6.762181254003609,7.7543496691522655],[6.762000010620552,7.754348715965595],[6.762003833231197,7.753625618728779],[6.76182259018004,7.753624665555011],[6.7618273683128995,7.752720794084238],[6.761646125670841,7.752719840945874],[6.761649948072708,7.751996743829572],[6.761439159586114,7.751820218506728],[6.760850908721749,7.750447554191381],[6.76065376989162,7.750282465469052],[6.760412922097959,7.749171432471538],[6.76019192066031,7.748781814983236],[6.748040712341459,7.748754642579122],[6.747970472326133,7.7489301164436695],[6.747666885831029,7.749995621859465],[6.747518886026097,7.750837533598957],[6.747700126099395,7.750838492518843],[6.747692434469403,7.752284672908174],[6.747691472911679,7.752465445449426],[6.747688588099876,7.753007763063302],[6.747686664776479,7.753369308130934],[6.74768377961809,7.7539116257200185],[6.747681856063633,7.754273170771153],[6.747933763073225,7.754455281684536],[6.747679932416754,7.754634715815707],[6.747678008677449,7.754996260853677],[6.747859250549951,7.754997220216998],[6.747856364999433,7.755539537829435],[6.747493880814065,7.755537618889977],[6.747492918763184,7.7557183913788945],[6.747490994592099,7.756079936351743],[6.7474900324718945,7.756260708835694],[6.747671274862035,7.756261668434466],[6.747670312795978,7.756442440939414],[6.747669350706815,7.75662321344271],[6.747663577686593,7.757707848427851],[6.747659728544309,7.758430938384856],[6.747655879032309,7.759154028315505],[6.747653954137665,7.7595155732709244],[6.747649141496675,7.76041943563053],[6.74746789732916,7.760418475511264],[6.74746693465434,7.760599247955612],[6.747404445875539,7.760899742019992],[6.747282802037626,7.761140604991849],[6.747280876325383,7.761502149820411],[6.747532786504111,7.761684262100508],[6.747278950520693,7.761863694642326],[6.747277987583681,7.762044467050848],[6.747186006612402,7.762501478876483],[6.746650620969789,7.762487739812893],[6.746576119983805,7.757702088592895],[6.746213634267836,7.7577001680313336],[6.746204004536521,7.759507891063493],[6.7462030414362175,7.759688663357652],[6.746202078312792,7.759869435650084],[6.7462001519965735,7.760230980230126],[6.746381395924947,7.760231940866443],[6.746370800382852,7.762220436187515],[6.7463698370130265,7.762401208479503],[6.7465510818922505,7.762402169310416],[6.746549155237877,7.762763713934781],[6.74654819187601,7.762944486244472],[6.746729437010318,7.762945447066184],[6.7467284737026585,7.7631262193968675],[6.7467265470179845,7.763487764053254],[6.746907792407391,7.763488724865754],[6.7469000853626815,7.764934903606378],[6.746896231285537,7.765657992937045],[6.7466880704666075,7.766762865326922],[6.745721709766213,7.767915523489003],[6.745433725042012,7.768000339890473],[6.7454327605454,7.768181112016364],[6.745281632970995,7.7687557483584735],[6.745066407300519,7.768902276207972],[6.74484341648439,7.76964550717044],[6.744553793335713,7.770143688192105],[6.744150097415973,7.771489190497291],[6.743869990348765,7.773893132321651],[6.7440426465011845,7.775676751566165],[6.743938363127102,7.776488921371667],[6.744119613742057,7.7764898849730475],[6.744113816638142,7.777574516285425],[6.744112850373139,7.777755288165049],[6.744294101553506,7.7777562518478245],[6.744289270268685,7.778660111334268],[6.744108018700915,7.778659147538172],[6.744107052297027,7.778839919407843],[6.744360525258344,7.77901646120517],[6.744096167997183,7.780163884250313],[6.743918067990513,7.780285130228202],[6.743916134587916,7.780646673890732],[6.744097386985005,7.780647638013445],[6.744093520212044,7.781370725409336],[6.744091586686673,7.781732269097346],[6.744388564487732,7.781587006129213],[6.744453125838033,7.781914969269703],[6.744452159172516,7.782095741154837],[6.744633412259148,7.782096705226934],[6.74462954567572,7.782819792841786],[6.74444829227899,7.782818828679043],[6.744445391865821,7.783361144304807],[6.744264138259646,7.783360179996749],[6.744262204380069,7.783721723693647],[6.74408095064199,7.78372075926293],[6.744079016514747,7.784082302907833],[6.744078049416402,7.78426307472784],[6.7442593033871,7.784264039226553],[6.74425736927605,7.784625582906868],[6.744255435072409,7.784987126580591],[6.744487097900567,7.785078747823394],[6.744254467935867,7.785167898414961],[6.744139658148932,7.785623566097322],[6.744250599158222,7.785890985735862],[6.744482262425169,7.785982607119657],[6.744249631905942,7.786071757561885],[6.74410699843899,7.786452832345527],[6.744239958109986,7.78787947573159],[6.744238990603075,7.788060247539444],[6.744420246225745,7.78806121243676],[6.744417343798875,7.788603527918305],[6.744416376276958,7.788784299742191],[6.744597632233118,7.788785264652779],[6.74459376222435,7.789508352022399],[6.744807420011902,7.789657159666825],[6.744952405068558,7.790233369317046],[6.744951437571133,7.790414141193998],[6.7451326942950995,7.790415106076343],[6.74513172685214,7.790595877974268],[6.745130759386038,7.7907766498705575],[6.745312016288341,7.790777614720812],[6.745309113984037,7.79131993046772],[6.7453081465029925,7.791500702380011],[6.745465481497682,7.791610283101248],[6.74566582402188,7.792406491792728],[6.745847081692175,7.792407456614615],[6.745846114305182,7.7925882285849335],[6.745845146895059,7.792769000553576],[6.7460264047437635,7.792769965343341],[6.746025437388137,7.7929507373329905],[6.746206695337544,7.792951702067975],[6.746387953310121,7.7929526667255375],[6.7463869860866295,7.793133438758842],[6.746493817510839,7.7932078452439955],[6.74692689218243,7.793859420723102],[6.747108150635691,7.793860385184144],[6.747106216555451,7.7942219294135455],[6.747287475187101,7.79422289384242],[6.747286508189946,7.7944036659773115],[6.747285541169673,7.794584438110522],[6.747466799979756,7.7945854025072245],[6.747465833014015,7.79476617466139],[6.747464866025156,7.794946946813917],[6.74746389901318,7.795127718964807],[6.7476451580793375,7.795128683351961],[6.747643224141349,7.795490227693969],[6.7478244833859335,7.795491192048936],[6.747823516459926,7.795671964240092],[6.747822549510806,7.795852736429588],[6.748003808933825,7.795853700752361],[6.748002842039254,7.796034472962848],[6.748184101563028,7.796035437230791],[6.748365361109934,7.796036401421277],[6.748364394347582,7.796217173675273],[6.748483470578569,7.796459314380892],[6.748542753802561,7.796760454631018],[6.748724013706353,7.796761418757072],[6.748723047006914,7.796942191049739],[6.748722080284371,7.797122963340769],[6.748953750708638,7.797214584275387],[6.748721113538723,7.797303735630117],[6.748720146769971,7.797484507917807],[6.748719179978113,7.797665280203822],[6.748900440293392,7.797666244365508],[6.748992308551058,7.7974351973914136],[6.749081700631773,7.7976672084497185],[6.749262960993236,7.797668172456459],[6.749261994411321,7.79784894480868],[6.7494936653926105,7.797940565592096],[6.749261027806306,7.79802971715927],[6.749257161155256,7.7987528065448855],[6.749363994452118,7.79882721008041],[6.749762871717085,7.799409992631486],[6.7496818930136,7.799761456950996],[6.749971544452902,7.79996318888546],[6.7497922445584,7.800382650138494],[6.749791277863125,7.800563422533666],[6.750153801280217,7.80056535057332],[6.7501528347172695,7.800746123012031],[6.750151868131232,7.800926895449106],[6.749968672858943,7.801287476246786],[6.749967706125913,7.801468248656266],[6.750148968234575,7.801469212750379],[6.7501460681301,7.8020115300366975],[6.750145101382427,7.802192302462152],[6.7503263638250965,7.802193266569173],[6.750324430415936,7.802554811460272],[6.750323463676723,7.802735583903332],[6.7504808038773,7.80284516427632],[6.750681155832685,7.803641374436951],[6.751043682123422,7.803643302469935],[6.751042715556647,7.80382407499346],[6.751223978814333,7.803825038916247],[6.751216246071188,7.805271219225419],[6.751034982191483,7.805270255121862],[6.751034015416966,7.805451027630441],[6.751033048619367,7.805631800137342],[6.7508517846071605,7.805630835911036],[6.750740481952628,7.806053988224758],[6.750304124043617,7.806351032416207],[6.750301222302044,7.806893349635864],[6.750493062681264,7.807690610003199],[6.7503642813768225,7.8082495168782335],[6.750443619330771,7.808611494267877],[6.750359253315691,7.808977631707603],[6.750469911185709,7.809244355659328],[6.750468943669959,7.809425128063588],[6.750650209269415,7.809426092919654],[6.750649241808379,7.8096068653448345],[6.750648274324255,7.80978763776834],[6.750829540102408,7.809788602592013],[6.751010805903666,7.8097895673380915],[6.751009838552069,7.80997033980515],[6.75124993245044,7.8100930775390935],[6.751370435918162,7.810333814129247],[6.751551702022074,7.810334778710315],[6.751732968149064,7.810335743213781],[6.751732001039466,7.810516515766195],[6.751913267267344,7.810517480214649],[6.751912300212486,7.810698252788027],[6.752093566541254,7.810699217181466],[6.752092599541137,7.810879989775756],[6.7524551324235045,7.810881918374983],[6.752454165555952,7.811062691012801],[6.752815731951272,7.811245392028081],[6.752996998628843,7.811246356101223],[6.752996031948618,7.811427128803482],[6.753177298727075,7.81142809282159],[6.753176332101613,7.81160886554474],[6.753357598980935,7.8116098295078125],[6.75353886588334,7.811610793393266],[6.753537899390467,7.811791566159893],[6.753899467059825,7.811974266553216],[6.7540807341870535,7.811975230250963],[6.754079767881554,7.812156003082012],[6.754261035109645,7.812156966724704],[6.754442302360807,7.812157930289775],[6.75444133618792,7.812338703164269],[6.754803870915053,7.812340630106672],[6.754802904874785,7.812521403024595],[6.754984172350755,7.812522366401921],[6.754983206365277,7.812703139340778],[6.7551644739421075,7.812704102663036],[6.755163508011424,7.812884875622769],[6.755344775689153,7.812885838889955],[6.755343809813267,7.813066611870606],[6.755525077591877,7.813067575082718],[6.755524111770793,7.813248348084255],[6.755705379650282,7.8132493112412895],[6.755704413884003,7.813430084263742],[6.755885681864372,7.813431047365692],[6.755884716152903,7.81361182040901],[6.756065984234154,7.813612783455878],[6.756065018577497,7.813793556520065],[6.756246286759608,7.813794519511838],[6.756245321157767,7.813975292596931],[6.756426589440777,7.813976255533613],[6.756425623893757,7.814157028639588],[6.75660689227765,7.814157991521172],[6.756605926785452,7.81433876464805],[6.756787195270224,7.814339727474533],[6.756968463778023,7.814340690223374],[6.7569674984185095,7.814521463393611],[6.757148767027186,7.8145224260873425],[6.757147801722505,7.814703199278495],[6.757329070432041,7.814704161917119],[6.757510339164617,7.814705124478096],[6.757509373992632,7.814885897712634],[6.757690642826087,7.814886860218498],[6.757871911682557,7.81488782264671],[6.757870946643275,7.815068595924668],[6.758052215600621,7.815069558297763],[6.7580512506161865,7.815250331596589],[6.758232519674409,7.815251293914557],[6.758413788755621,7.815252256154869],[6.758412823903905,7.815433029497109],[6.7585940930860104,7.815433991682292],[6.758891095930473,7.81528872408921],[6.758955666878118,7.815616689227814],[6.758954702213989,7.815797462634251],[6.7591359716208474,7.815798424631505],[6.759317241050688,7.8157993865511],[6.7593162765192965,7.8159801600009295],[6.759677851205109,7.816162857145364],[6.759859120859707,7.816163818877004],[6.759858156515938,7.816344592391067],[6.76003749767064,7.8167071011356315],[6.760218767604835,7.816708062779468],[6.760217803347842,7.816888836333538],[6.760399073382929,7.816889797922211],[6.760397144955737,7.817251345070363],[6.7605784151695785,7.817252306626371],[6.760577450999385,7.817433080220488],[6.760576486806204,7.817613853812925],[6.760757757198805,7.817614815336261],[6.760756793060526,7.817795588949515],[6.760938063554004,7.817796550417676],[6.76093709947063,7.817977324051787],[6.760936135364274,7.818158097684238],[6.761117406036519,7.818159059119714],[6.761116441985074,7.818339832773021],[6.7611154779106455,7.818520606424586],[6.761296748761645,7.8185215678273705],[6.761295784742134,7.81870234149985],[6.7614770556940345,7.818703302847443],[6.761475127741876,7.819064850232341],[6.761656398872557,7.819065811547232],[6.761655434939914,7.819246585259691],[6.761654470984293,7.8194273589705094],[6.761835742293764,7.819428320252689],[6.761833814469413,7.819789867714277],[6.762015085957676,7.819790828963739],[6.76201412208895,7.819971602714508],[6.762013158197251,7.820152376463637],[6.762194429864315,7.820153337680372],[6.762192502167831,7.820514885218577],[6.762191538285131,7.820695658985227],[6.762443485560528,7.820877773837969],[6.762189610450816,7.821057206513476],[6.762187682524615,7.821418754035092],[6.762368954760081,7.821419715331526],[6.762367990840452,7.821600489112347],[6.762549263176836,7.821601450353545],[6.762547335424532,7.82196299795511],[6.762728607939748,7.821963959163559],[6.7627266802514425,7.822325506803474],[6.76272571637284,7.822506280620928],[6.762906989144833,7.822507241819092],[6.762906025321204,7.822688015657323],[6.762905061474609,7.822868789493935],[6.76308633442547,7.822869750659328],[6.763085370633855,7.8230505245167326],[6.7630834429817375,7.823412072226594],[6.763264716189358,7.823413033381687],[6.763263752406805,7.82359380725662],[6.763260860921376,7.824136128871358],[6.763442134463767,7.824137090038614],[6.763440206847924,7.824498637818447],[6.763438279140241,7.824860185591563],[6.763971011563613,7.824999536420588],[6.763797935651701,7.8254044296547],[6.764160483988705,7.82540635175957],[6.764159520343426,7.825587125728566],[6.764340794624308,7.825588086686832],[6.764339831034049,7.825768860676612],[6.7645211054158745,7.825769821579585],[6.764520141880639,7.825950595590143],[6.764701416363387,7.825951556437819],[6.7647004528831784,7.8261323304691945],[6.764978659720073,7.826217472181182],[6.766130847279654,7.826866571594729],[6.766900586643242,7.827416986559457],[6.767049323702705,7.827591009230355],[6.7673153862100595,7.8276969450671015],[6.7675124499783434,7.827668970736963],[6.767672841664783,7.828065778474847],[6.768301939712914,7.827822987872704],[6.769978509673211,7.830068921069789],[6.770194054657814,7.830602155642313],[6.770499721213785,7.8308400288982085],[6.770654649991456,7.831406463211308],[6.770835927593499,7.831407422087071],[6.770834966077968,7.8315881968312135],[6.770834004539549,7.831768971573675],[6.771015282320546,7.831769930416419],[6.77101432083728,7.831950705179614],[6.771195598719198,7.831951663966931],[6.771194637291088,7.832132438750845],[6.771193675840095,7.83231321353311],[6.771374953900956,7.832314172287397],[6.771373992505125,7.832494947090413],[6.771480835438436,7.832569349130827],[6.771701251673981,7.832891342850143],[6.772342321933157,7.833337756732043],[6.772783156765193,7.833981743131905],[6.773210542432325,7.834279351888528],[6.77343096078328,7.834601345304278],[6.773718426255255,7.8348015238152495],[6.774182723649968,7.835837673326296],[6.774327752592997,7.836413885950172],[6.7744345970650315,7.836488288000912],[6.774485638542243,7.836797578976246],[6.774784404458376,7.836921487926358],[6.774561877241525,7.837226097702189],[6.77491971266081,7.837628071981432],[6.774970754414763,7.837937363021993],[6.775152035375957,7.837938320834989],[6.7751501144230835,7.838299871275909],[6.775331395563325,7.838300829055733],[6.775329474675292,7.838662379534748],[6.775510755994566,7.838663337281393],[6.775509795594399,7.838844112540706],[6.775691077014639,7.8388450702318115],[6.77568915630201,7.839206620790235],[6.775870437901312,7.839207578448145],[6.775868517253565,7.839569129044591],[6.775867556895438,7.839749904340347],[6.776048838751925,7.839750861987411],[6.776047878449083,7.839931637303828],[6.7760469181234075,7.8401124126185655],[6.776228200158971,7.840113370232419],[6.776227588930638,7.840228437286544],[6.777510436018243,7.840231236293273],[6.777487405801449,7.840039628857251],[6.777618195144603,7.840231471231738],[6.778221726171203,7.840232786551273],[6.778223263444832,7.839943123260158],[6.778041981236342,7.839942166525612],[6.778043900100561,7.839580615399643],[6.7780448594984515,7.839399839834172],[6.777633286177926,7.839079565258598],[6.777506771027193,7.838312316338291],[6.777395872821427,7.838382291858375],[6.7771912265469805,7.838697382046079],[6.776171147773303,7.837532469251271],[6.776629338563175,7.8373392980906385],[6.776855656982309,7.837695976916505],[6.777147087039309,7.837768076168732],[6.777148046599563,7.83758730069826],[6.777149006136992,7.837406525226145],[6.776935309971804,7.837257722061454],[6.776790282749946,7.836681509643435],[6.776791242329441,7.836500734207654],[6.77660996178746,7.836499777274358],[6.776611881034143,7.836138226442526]],[[6.774497823255106,7.836268210672328],[6.774655949711933,7.836427571270577],[6.7744345970650315,7.836488288000912],[6.774497823255106,7.836268210672328]],[[6.776609002129877,7.836680552687798],[6.7764277215326585,7.836679595654289],[6.776426761774159,7.83686037104366],[6.776245481121699,7.836859413909931],[6.776246440958287,7.836678638542906],[6.776247400772043,7.836497863174155],[6.7763392702413325,7.836266808781288],[6.776428681268327,7.836498820263192],[6.77660996178746,7.836499777274358],[6.776609002129877,7.836680552687798]],[[6.776647457590351,7.836923422584167],[6.776487646830167,7.837081104191399],[6.776426761774159,7.83686037104366],[6.776647457590351,7.836923422584167]],[[6.775816813909611,7.837619903047217],[6.77565868656503,7.837460542643378],[6.775880039769932,7.837399825365955],[6.775816813909611,7.837619903047217]],[[6.775943265533777,7.8371797476545],[6.7761013929409115,7.837339107953948],[6.775880039769932,7.837399825365955],[6.775943265533777,7.8371797476545]],[[6.776660671388577,7.840153997277444],[6.776143259454666,7.839690722930179],[6.776774926373727,7.83957391638914],[6.776660671388577,7.840153997277444]],[[6.778224121969517,7.8322884526426],[6.778383929920773,7.832130769992002],[6.778444816103184,7.83235150299866],[6.778224121969517,7.8322884526426]],[[6.778807374075252,7.832353414203127],[6.7788064158792185,7.832534189922809],[6.778987694977504,7.8325351454306205],[6.779168974098591,7.832536100860599],[6.779168016035848,7.832716876623232],[6.7793492952577825,7.832717831997697],[6.779348337250288,7.832898607780944],[6.779892175287001,7.832901473504273],[6.779891217490859,7.833082249352834],[6.780072496960075,7.833083204460582],[6.780071539219194,7.833263980329769],[6.780252818789274,7.833264935381985],[6.780434098382104,7.833265890356364],[6.780433140774539,7.83344666626852],[6.78061442046821,7.833447621187361],[6.780795700184688,7.833448576028364],[6.78079474271045,7.83362935198346],[6.780976022527766,7.833630306768921],[6.781157302367866,7.8336312614765395],[6.781156345026961,7.8338120374745905],[6.7813376249678985,7.833812992126663],[6.781518904931594,7.833813946700888],[6.781517947724029,7.833994722741845],[6.781879550801692,7.834177407785206],[6.782060830989855,7.834178362170474],[6.78205987397093,7.8343591382749755],[6.782241154259928,7.834360092604684],[6.782240197296298,7.834540868729833],[6.782601801268449,7.834723553368299],[6.782783081781881,7.834724507509017],[6.782782125006923,7.83490528369763],[6.782963405621191,7.834906237782775],[6.782962448901542,7.835087013992044],[6.78296149215913,7.835267790199629],[6.783142772952305,7.835268744251473],[6.783141816265206,7.835449520479694],[6.783323097159217,7.8354504744759526],[6.783322140527437,7.835631250724783],[6.783501508346588,7.835993757202701],[6.783682789520352,7.835994711110058],[6.783681832976463,7.836175487398426],[6.783679919820421,7.836537039970214],[6.783861201251214,7.836537993866516],[6.783860244717151,7.836718770172207],[6.783858331580762,7.837080322778514],[6.783857374978439,7.837261099079173],[6.783676093235277,7.837260145093789],[6.78355302388084,7.837499597563475],[6.783311616075792,7.837619789352111],[6.783310659170908,7.837800565581001],[6.783129377261743,7.83779961129515],[6.782766813511698,7.837797702489788],[6.782585531670821,7.83779674797028],[6.782586488888104,7.837615971830507],[6.782405207148093,7.8376150172553976],[6.782406164420707,7.837434241136265],[6.782224882781582,7.837433286505558],[6.782225840109525,7.837252510407044],[6.782044558571245,7.837251555720744],[6.782045515954511,7.837070779642876],[6.781864234517098,7.837069824900985],[6.781865191955684,7.8368890488437195],[6.781683910619136,7.836888094046243],[6.78168486811304,7.83670731800965],[6.781503586877357,7.836706363156588],[6.7815055019530135,7.83634481112289],[6.781224728705542,7.836201307335082],[6.781145812773501,7.835800573343127],[6.780964531996578,7.835799618367933],[6.780966447312933,7.835438066451374],[6.7806856748724185,7.835294562519976],[6.78060675941185,7.834893828603141],[6.780425479093674,7.834892873505873],[6.780427394650617,7.83453132170655],[6.780246114511367,7.834530366576035],[6.780247072333721,7.834349590696144],[6.780065792295287,7.834348635510084],[6.7800667501729155,7.834167859650857],[6.779785978939363,7.834024355435851],[6.7797070642850885,7.833623621636004],[6.779525784627298,7.833622666305645],[6.77952674264793,7.833441890506698],[6.779345463091011,7.833440935120813],[6.779346421166902,7.833260159342511],[6.778983862277529,7.833258248381851],[6.778985778673122,7.83289669690955],[6.77880449941874,7.832895741357104],[6.778805457660381,7.832714965640808],[6.778565340165007,7.8325922377915775],[6.778444816103184,7.83235150299866],[6.778807374075252,7.832353414203127]],[[6.777248971024581,7.835650006315841],[6.777159559542491,7.8354179949230565],[6.776978279423365,7.83541703827953],[6.776979238765009,7.835236262809779],[6.776616678751378,7.835234349333831],[6.776617638226343,7.835053573907121],[6.776618597678483,7.834872798478724],[6.776437317862047,7.834871841668647],[6.7764382773694285,7.834691066260975],[6.776256997653911,7.834690109395388],[6.77625795721653,7.834509334008354],[6.77607667760189,7.834508377087263],[6.776077637219743,7.834327601720892],[6.7758963577059985,7.834326644744302],[6.775897317379081,7.834145869398634],[6.775898277029331,7.833965094051322],[6.775716997694544,7.833964137041586],[6.775717957400018,7.833783361714942],[6.775536678166127,7.833782404649708],[6.7755376379268215,7.833601629343734],[6.775016149982459,7.833195815062612],[6.774377615499816,7.832348320034309],[6.774743805152581,7.832072443113184],[6.775360197920459,7.832877571071991],[6.775541476741226,7.832878528103296],[6.775722755584851,7.832879485056766],[6.775721795993555,7.83306026039173],[6.775903074938065,7.833061217289716],[6.775902115401986,7.833241992645344],[6.776083394447382,7.833242949487842],[6.776082434966522,7.833423724864177],[6.776263714112803,7.833424681651187],[6.776262754687165,7.833605457048203],[6.776442115170665,7.8339679646134694],[6.776623394596775,7.833968921311827],[6.776622435258769,7.834149696748522],[6.776803714785789,7.834150653391377],[6.77680275550302,7.834331428848768],[6.776982116653004,7.834693936390609],[6.777163396459845,7.834694892944785],[6.777162437264739,7.834875668441823],[6.777343717172449,7.83487662494048],[6.777342758032591,7.835057400458232],[6.777340839684418,7.8354189514887205],[6.777248971024581,7.835650006315841]],[[6.7716762062703655,7.832174616593467],[6.771518082411978,7.832015255960184],[6.771739432502237,7.831954539861948],[6.7716762062703655,7.832174616593467]],[[6.771572570886804,7.829241958677692],[6.771497777865891,7.829652391031662],[6.771336434135161,7.829341257041592],[6.771572570886804,7.829241958677692]],[[6.763389637206758,7.821019874432535],[6.764285452264206,7.8213033469554],[6.764362950865992,7.821430284463007],[6.764544223376994,7.821431244826845],[6.764725495910945,7.8214322051129646],[6.764724533004397,7.821612979185932],[6.764905805639221,7.821613939416796],[6.765087078296991,7.821614899569942],[6.76508611552336,7.821795673686148],[6.765267388281984,7.821796633784029],[6.7654486610635685,7.821797593804192],[6.765447698422862,7.821978367963627],[6.7658102442107095,7.821980287815693],[6.765809281702937,7.822161062018388],[6.7659905547092,7.822162021850287],[6.76598959225643,7.822342796073789],[6.766170865363563,7.822343755850412],[6.766352138493607,7.822344715549308],[6.7663511761737825,7.822525489816022],[6.766532449404715,7.822526449459634],[6.766531487139901,7.822707223747093],[6.766712760471724,7.8227081833354175],[6.766711798261927,7.822888957643695],[6.766893071694577,7.822889917176734],[6.766892109539799,7.823070691505765],[6.767073383073339,7.82307165098351],[6.767072420973584,7.823252425333339],[6.767253694607973,7.823253384755786],[6.767434968265302,7.8232543441005005],[6.767434006298522,7.823435118493538],[6.767615280056718,7.823436077782947],[6.767614318144972,7.823616852196777],[6.769055857035139,7.825251495156909],[6.769237131779115,7.825252453970848],[6.7692361703399255,7.825433228569848],[6.769663539929556,7.825730837848227],[6.7699574251185055,7.826160161875666],[6.770138700366834,7.826161120412864],[6.770137739203038,7.826341895115609],[6.770256833340758,7.82658403533785],[6.7703161311574505,7.826885177762904],[6.770497406763468,7.8268861362341875],[6.770494523396642,7.827428460451891],[6.770313247556657,7.827427501913394],[6.770131971739543,7.827426543297117],[6.770040102543814,7.827657596007653],[6.76995069594532,7.827425584603061],[6.7695881444255575,7.82742366698162],[6.769589105960674,7.827242892356084],[6.769407830313129,7.827241933451108],[6.769408791903336,7.827061158846338],[6.76904624083294,7.827059240847895],[6.76904720255622,7.826878466286279],[6.768865927133352,7.826877507192815],[6.768866888911716,7.82669673265195],[6.768685613589737,7.8266957735031335],[6.768686575423178,7.82651499898307],[6.768324025003907,7.826513080496975],[6.768324986970404,7.826332306020034],[6.767557003732578,7.826198019063123],[6.767240223896007,7.8257842257929155],[6.766815896029457,7.825673234532867],[6.766518013025102,7.825238063597396],[6.766336738624856,7.825237103617122],[6.766337701288626,7.8250563293753475],[6.766156426989296,7.825055369339765],[6.766157389708102,7.824874595118794],[6.76597611550965,7.824873635027905],[6.765977078283488,7.824692860827697],[6.765795804185932,7.824691900681508],[6.765796767014797,7.824511126502127],[6.765480576331121,7.824463466488569],[6.764940264947811,7.823922689529747],[6.76489521301011,7.823602454356536],[6.764713939517935,7.82360149387861],[6.76471490267689,7.823420719823928],[6.76443414852083,7.823277209513383],[6.764355245724146,7.822876476640625],[6.764096899729902,7.822675423299358],[6.763816243513258,7.821969724782076],[6.7635393665123535,7.8217975618612785],[6.763389637206758,7.821019874432535]],[[6.759954195746913,7.777349880688469],[6.760349211893693,7.7770377984967505],[6.760513307797332,7.776835624773902],[6.7607026445151295,7.776860131674316],[6.76115607491356,7.776806306714665],[6.761706023603439,7.776877480152595],[6.762052106342655,7.778109329984396],[6.761682388641294,7.7786518519992685],[6.761067616663531,7.778287049806374],[6.76068591144193,7.778124249601874],[6.760344521527019,7.777921675202762],[6.7600630426450765,7.7778397964420645],[6.759954195746913,7.777349880688469]],[[6.7600620831750655,7.778020570307545],[6.760243336462653,7.778021527212598],[6.760242377047141,7.778202301098898],[6.760423630435175,7.778203257949177],[6.760422671074164,7.77838403185636],[6.760603924562684,7.778384988651857],[6.760602005926695,7.778746536506249],[6.760783259593168,7.778747493269462],[6.760781341020247,7.77910904116228],[6.76078038169932,7.779289815106197],[6.760876558522228,7.779205019894804],[6.761351595434814,7.778680377991184],[6.761728979260026,7.7795120178916255],[6.761226048397733,7.779739028459603],[6.761140011930495,7.77983405049253],[6.761139052672663,7.780014824474845],[6.761320306950536,7.780015781163657],[6.761319347747233,7.780196555166754],[6.761500602125559,7.780197511800759],[6.761498683805051,7.780559059847029],[6.76204968911003,7.780351154248972],[6.762640370469305,7.781770144528333],[6.76348859600983,7.78322688339487],[6.763656487722683,7.783824470939722],[6.763837743949971,7.783825427018182],[6.76383582672678,7.784186975582734],[6.764197378075754,7.784371791448717],[6.764556060577178,7.785094671134737],[6.764671811737314,7.785195199039922],[6.765035728460815,7.787246290302145],[6.765365556288332,7.787532737516117],[6.765528470701517,7.788450944482166],[6.765912722964654,7.789374539253688],[6.765867073282164,7.789905945292498],[6.766612329090595,7.791697241846097],[6.767052471676371,7.792881355540855],[6.767233732218812,7.792882311271627],[6.767232773946377,7.793063085898554],[6.767310936571301,7.79399524052276],[6.767767932557463,7.794692924867059],[6.767949193968004,7.794693880512392],[6.767948235777049,7.794874655212461],[6.768050115392759,7.794953946931572],[6.768328024001825,7.7953169715391555],[6.768592818876374,7.795160858043701],[6.76881825352622,7.794619706633173],[6.769496461730876,7.794956692476315],[6.769657056911281,7.795166466056467],[6.7711941176513655,7.796336305501814],[6.772025439054996,7.7973250260358515],[6.7721813327638545,7.797710683233038],[6.77228321401693,7.797789971583479],[6.772465811985911,7.797538707589949],[6.772645740645932,7.797791879685235],[6.772827003994734,7.797792833619893],[6.7728260475119235,7.797973608896704],[6.772932883752269,7.798048007590171],[6.773132417369874,7.798840790840015],[6.773464381679242,7.798768406004899],[6.773801055281059,7.798989584878106],[6.774271501112722,7.799167968596051],[6.774523243671796,7.799535725179547],[6.775012720920978,7.799721322572876],[6.775458153017203,7.800411437020656],[6.775603185328543,7.800987648870913],[6.7760725531684685,7.801063953168996],[6.776150720634689,7.8015263153289105],[6.7763738616980405,7.801706456713991],[6.7763268556465635,7.8020677710112505],[6.776629819908498,7.802312348385453],[6.776870050741681,7.802614780855852],[6.777434407268581,7.802960713408796],[6.77740904781452,7.803155636180863],[6.778121486762569,7.804751631250711],[6.778301379882291,7.806181194156117],[6.777931961448595,7.807124774396153],[6.777954163038867,7.807310780687456],[6.777895404597771,7.807762423920623],[6.7779493855050355,7.808214659812175],[6.77792521882716,7.808400422338912],[6.778125634522426,7.808928710252871],[6.778301547201643,7.810393980541507],[6.778198069360222,7.810475727944097],[6.778197113611825,7.810656503775397],[6.778378383188961,7.81065745689313],[6.778377427495579,7.810838232745134],[6.77855869717332,7.810839185807576],[6.77855774153496,7.811019961680228],[6.778739011313346,7.8110209146873775],[6.778738055730009,7.811201690580713],[6.778737100123871,7.811382466472386],[6.778918370080712,7.811383419446561],[6.778917414529603,7.8115641953589146],[6.778916458955698,7.8117449712695874],[6.779097729090996,7.8117459242107765],[6.779096773572125,7.8119267001420925],[6.779095818030456,7.812107476071767],[6.779277088344221,7.812108428979963],[6.779276132857594,7.812289204930316],[6.779457403271988,7.812290157783206],[6.7794564478404045,7.812470933754188],[6.779455492386028,7.812651709723476],[6.779636762978877,7.812652662543361],[6.7796348521574314,7.813014214521641],[6.779816122928778,7.813015167308516],[6.77981325675922,7.813557495330475],[6.779812301323789,7.813738271334471],[6.779993572429321,7.813739224132941],[6.779990706219856,7.814281552201877],[6.779989750771124,7.814462328221567],[6.780101547107094,7.814531839741805],[6.780317862289823,7.8151759582935885],[6.7801804459374555,7.815607901198569],[6.779983061991944,7.81572776031273],[6.779902597926429,7.816010146919799],[6.778788641391248,7.816161793290465],[6.778172256148628,7.815356674807825],[6.777809713014837,7.8153547671784995],[6.77781066951193,7.815173991434955],[6.777351190217372,7.815087905446012],[6.7761683547882665,7.814583778684104],[6.774459507552772,7.8147116561192265],[6.773638168990031,7.814641481959762],[6.772044119903636,7.8152157422656074],[6.7697359641905415,7.815395871608351],[6.769204607827003,7.815587289555418],[6.767558797202123,7.815745926630948],[6.76738837812041,7.815941089879685],[6.766006339275643,7.815719788941145],[6.765254411392358,7.814840017147129],[6.764472217338959,7.814600637628086],[6.7644994335384805,7.814283905019655],[6.76331577830019,7.813828774507874],[6.762329942195654,7.811593668032459],[6.761997340288188,7.810470398937637],[6.7618867961542435,7.809847310099044],[6.761705528971263,7.8098463500088515],[6.76170649170918,7.809665576210031],[6.761525224626983,7.8096646160647305],[6.761526187419731,7.809483842286725],[6.7611636534798984,7.809481921808324],[6.761164616405281,7.809301148073623],[6.760983349547628,7.809300187740526],[6.760984312527832,7.809119414026681],[6.760803045770962,7.80911845363849],[6.760804008805986,7.808937679945485],[6.7606227421498994,7.808936719502202],[6.760623705239738,7.8087559458300575],[6.760442438684437,7.808754985331686],[6.760443401829085,7.8085742116803685],[6.7602621353745675,7.808573251126914],[6.760264061750496,7.8082117038643375],[6.760082795474573,7.808210743278307],[6.760085685099417,7.8076684224394315],[6.759804942411807,7.807524912377082],[6.7597260429678725,7.807124180450935],[6.759544777227626,7.807123219767229],[6.7595457405542945,7.806942446213507],[6.759364474914823,7.8069414854747405],[6.759365438296274,7.806760711941893],[6.759366401654727,7.806579938407363],[6.759185136193826,7.806578977636057],[6.759186099607056,7.806398204122363],[6.75900483424691,7.806397243296006],[6.759006761159913,7.8060356963087525],[6.759007724581913,7.8058549228126175],[6.75882645947808,7.805853961976251],[6.758827422954845,7.805673188500974],[6.758828386408608,7.805492415024057],[6.758647121483307,7.805491454155176],[6.7586480849918305,7.805310680699101],[6.758649048477349,7.805129907241344],[6.758467783730576,7.8051289463399485],[6.7584687472708485,7.80494817290308],[6.758287482624861,7.804947211946659],[6.7582894097919,7.804585665113001],[6.758108145324414,7.80458470412408],[6.758110072554925,7.80422315732886],[6.758111036135666,7.804042383928716],[6.757929771924445,7.804041422929833],[6.75793169917239,7.803679876169669],[6.757932662761846,7.803499102787117],[6.757751398806873,7.803498141778283],[6.757753326072232,7.803136595053199],[6.757754289670392,7.802955821688179],[6.757573025971651,7.802954860669405],[6.7575749532544025,7.8025933139794645],[6.757576880445092,7.8022317672829145],[6.757395617080303,7.8022308062767385],[6.757398507926908,7.801688486286983],[6.757217244818338,7.80168752527089],[6.757220135690957,7.801145205333828],[6.757223989865527,7.800422112061213],[6.757042727323979,7.800421151125356],[6.757050435189882,7.798974964680771],[6.75705236192616,7.798613418053054],[6.756871100184653,7.798612457265072],[6.756873026984234,7.798250910675758],[6.756873990349493,7.798070137378686],[6.756692728864076,7.798069176580836],[6.756694655680901,7.797707630026652],[6.756695619054779,7.797526856747102],[6.756514357825437,7.797525895939397],[6.756516284659483,7.797164349420368],[6.756335023608526,7.797163388580274],[6.7563379139199355,7.796621068856917],[6.756156653125048,7.796620108006989],[6.7561585800395285,7.796258561561533],[6.755977319422992,7.796257600679231],[6.755981173286274,7.795534507858693],[6.755799913003424,7.795533546989123],[6.755801839952205,7.795172000614002],[6.755802803392045,7.7949912274239255],[6.755621543365203,7.79499026654455],[6.7556234703311,7.794628720204584],[6.755442210482596,7.794627759292866],[6.7554460644485825,7.79390466668323],[6.755264804933705,7.793903705784279],[6.75526769539925,7.793361386377313],[6.755086436140352,7.793360425468595],[6.755088363157473,7.792998879234073],[6.754907104076867,7.792997918293034],[6.7549090311571,7.792636372097038],[6.754909994662654,7.792455598996545],[6.754728735838004,7.792454638045753],[6.754729699398148,7.7922738649661625],[6.754548440674128,7.79227290396051],[6.754549404288855,7.792092130901861],[6.754550367880539,7.791911357841494],[6.754369109334832,7.791910396803547],[6.754373927335691,7.79100653158977],[6.754374890866726,7.790825758542041],[6.754375854374716,7.79064498549266],[6.754378744760415,7.790102666334625],[6.754197487013915,7.790101705444904],[6.754202304250512,7.7891978402611],[6.754383561609012,7.789198801038],[6.754385488187137,7.788837254907731],[6.754386451441631,7.788656481840124],[6.754567708590418,7.788657442471951],[6.75456867174428,7.788476669380141],[6.754749928838541,7.7884776299120215],[6.754750891891771,7.788296856795977],[6.754569634875097,7.78829589628666],[6.754571561067606,7.787934350094759],[6.754572524129298,7.787753576996286],[6.754443681917765,7.787641673286151],[6.754225418966032,7.7848592868024475],[6.7540441634923125,7.78485832648973],[6.754055716802668,7.7826890496735155],[6.754056679428726,7.782508276594753],[6.753958106086274,7.782425729020681],[6.7537542245615425,7.780521193257153],[6.753349953203318,7.779069748648105],[6.753166017807664,7.778891609941956],[6.752839885263339,7.7785494505979536],[6.752920401633157,7.775427389214491],[6.752839875684162,7.772739814115153],[6.75265862558659,7.772738854696484],[6.752662473360076,7.772015762729806],[6.7526643971084646,7.771654216736588],[6.752559220033703,7.771578183206983],[6.752377294764322,7.7706475218431175],[6.7524889186546915,7.770568619492206],[6.75248988043335,7.770387846505779],[6.752389658176308,7.770306923684366],[6.7522095545044385,7.769025054681722],[6.752316325406556,7.768940703455842],[6.752317287055061,7.768759930477084],[6.752136038729594,7.768758971323589],[6.752144693224751,7.767132014643872],[6.752325940853827,7.76713297359411],[6.752326902271716,7.766952200598846],[6.752329786387017,7.766409881603114],[6.752511033729673,7.76641084038586],[6.7525129562031845,7.766049294335317],[6.752515839740507,7.765506975247099],[6.752697086719461,7.7655079338397845],[6.752699969817208,7.7649656146689585],[6.752881216587171,7.764966573116757],[6.752882177496293,7.764785800033911],[6.752886020902233,7.764062707686095],[6.753067267308543,7.7640636659438655],[6.753068228025056,7.763882892830181],[6.753072070660572,7.763159800359069],[6.753253316703273,7.7631607584268325],[6.753256198205882,7.762618438988371],[6.753262920905197,7.7613530269075905],[6.7534441661977604,7.761353984672503],[6.753447046776934,7.760811665116831],[6.75344992714867,7.7602693455462814],[6.753631172000441,7.760270303098665],[6.753632132000958,7.760089529882606],[6.753723983845603,7.759858481186877],[6.753813376798497,7.760090487335319],[6.753811456929011,7.760452033810896],[6.753992701904192,7.760452991231644],[6.753991742012183,7.760633764489534],[6.753990782097131,7.7608145377457936],[6.754172027249958,7.760815495134569],[6.754170107505338,7.761177041687201],[6.754168187668553,7.76153858823325],[6.754349433153653,7.761539545635174],[6.754347513379331,7.761901092219705],[6.75434559351285,7.76226263879769],[6.75452683933023,7.762263596212748],[6.754519159561336,7.763709782639062],[6.754517239388733,7.76407132922909],[6.754748895874963,7.764162942301477],[6.7545162792678735,7.764252102521644],[6.754515319123977,7.7644328758125285],[6.754696565892376,7.764433833421182],[6.754690805009271,7.765518473267282],[6.75468888453061,7.765880019869454],[6.754857340703716,7.766011131345003],[6.755044658056198,7.767147348587514],[6.7552259060540285,7.767148306303061],[6.755224945850995,7.767329079657745],[6.755223025375832,7.767690626362216],[6.755404273628792,7.767691584068252],[6.7554023532162555,7.768053130811162],[6.755401392975442,7.76823390418016],[6.755582641483585,7.768234861876673],[6.755581681297124,7.7684156352665505],[6.755580721087634,7.768596408654791],[6.755680943860826,7.768677330787134],[6.756056939418693,7.7700157255274025],[6.756753078075507,7.771575451758885],[6.756832184416499,7.771857034231288],[6.757013434656802,7.771857991761095],[6.757012474629118,7.772038765298225],[6.757193724969855,7.772039722773349],[6.757192764996577,7.772220496331439],[6.757191805000287,7.772401269887863],[6.757373055518879,7.772402227330836],[6.757372095577001,7.7725830009081145],[6.7575533461960084,7.772583958296398],[6.7575523863085465,7.772764731894576],[6.757551426398075,7.772945505491124],[6.757732677194967,7.7729464628472416],[6.757731717338916,7.7731272364646395],[6.75773075745986,7.773308010080372],[6.757912008434621,7.7733089674043185],[6.757910088762354,7.773670514675913],[6.75809133991499,7.773671471967681],[6.75808942030558,7.774033019277674],[6.758303078532552,7.774181819336255],[6.758448084114305,7.774758028500016],[6.758629335800581,7.774758985695204],[6.758627416379824,7.775120533120554],[6.758626456634948,7.775301306830744],[6.7588077085765965,7.775302264016241],[6.758806748886176,7.775483037747272],[6.75880578917276,7.775663811476671],[6.758987041292315,7.775664768629954],[6.758986081633361,7.775845542380234],[6.758984162246468,7.776207089875758],[6.759165414621398,7.77620804701933],[6.759164454970923,7.776388820787148],[6.759163495297454,7.776569594553292],[6.759344747850308,7.776570551664631],[6.759342828589329,7.776932099237025],[6.759341868924352,7.77711287302076],[6.759523121732587,7.77711383012237],[6.7595212024886075,7.7774753777298455],[6.759519283152668,7.777836925330752],[6.759517363724771,7.778198472924979],[6.7596986170208835,7.778199430084379],[6.759699576668844,7.778018656265599],[6.759700536293818,7.777837882445133],[6.7600630426450765,7.7778397964420645],[6.7600620831750655,7.778020570307545]],[[6.77613576797712,7.800843873512919],[6.776293885677727,7.801003229821407],[6.7760725531684685,7.801063953168996],[6.77613576797712,7.800843873512919]],[[6.759791989359532,7.775194225533708],[6.760696880411678,7.775271548645967],[6.758911894380914,7.774017964933702],[6.759081037722367,7.7737603620488045],[6.760085104111774,7.7736819970796],[6.760168474745487,7.773779551623056],[6.76179433699749,7.774807200457138],[6.761609261945148,7.775271164684764],[6.761238609929945,7.775586262682548],[6.761787678374266,7.7760631302910665],[6.761552408833415,7.776665867503496],[6.760060255625018,7.7764528407406655],[6.759791989359532,7.775194225533708]],[[6.7592085750956405,7.768073225756917],[6.759145359174673,7.7682933048316185],[6.758987264099115,7.768133941720793],[6.7592085750956405,7.768073225756917]],[[6.759935487433067,7.767715501637329],[6.75987227196703,7.767935580946933],[6.759714176634803,7.767776218064416],[6.759935487433067,7.767715501637329]],[[6.758446072167478,7.765827447328702],[6.758758019562975,7.765666547441158],[6.7588575807902425,7.765902027724332],[6.758446072167478,7.765827447328702]],[[6.759078234381126,7.765965074935396],[6.758918458959677,7.7661227613469705],[6.7588575807902425,7.765902027724332],[6.759078234381126,7.765965074935396]],[[6.758139300246602,7.764632787068759],[6.758303935075723,7.765057057960875],[6.757878035035226,7.764831733993674],[6.758139300246602,7.764632787068759]],[[6.757959970335334,7.7642702834664945],[6.757896754954193,7.76449036236827],[6.757738661495749,7.7643309993063685],[6.757959970335334,7.7642702834664945]],[[6.7475647386525095,7.764616505340055],[6.747406650164785,7.764457139532712],[6.747627959013258,7.764396429522375],[6.7475647386525095,7.764616505340055]],[[6.74988916327234,7.7686155627355165],[6.749727848420131,7.768304432226119],[6.749963948448569,7.76820513739637],[6.74988916327234,7.7686155627355165]],[[6.751583306790717,7.782093979370126],[6.75174140199836,7.782253345839657],[6.751520083017895,7.7823140554404],[6.751583306790717,7.782093979370126]],[[6.751519119329528,7.782494828204731],[6.751337865209711,7.782493867025525],[6.750936798778545,7.783830597909377],[6.750707565029235,7.783295660340359],[6.7506089924264385,7.78321311212433],[6.750520354908919,7.783487256545302],[6.750050071016516,7.783839420336083],[6.749796338707617,7.7832957407041885],[6.749596581158164,7.7829143456897345],[6.7496334002247185,7.7820977536252744],[6.749280989342888,7.780013707791897],[6.749097364343712,7.778411035395529],[6.748574561698622,7.775850955008759],[6.748836958063765,7.775611049074521],[6.748837922037217,7.775430276586371],[6.74883888598757,7.775249504096585],[6.748839849914822,7.775068731605127],[6.7488427415579935,7.774526414120804],[6.749023991945278,7.774527375387348],[6.749025919437015,7.774165830344328],[6.749027846836366,7.7738042852947125],[6.749209096936989,7.773805246393552],[6.749211024089085,7.773443701292029],[6.749212951148803,7.77308215618393],[6.7493942009627705,7.773083117115082],[6.749396127775258,7.772721571955102],[6.749399017820795,7.772179254202777],[6.749580267270754,7.772180214943645],[6.749581230495663,7.771999442333593],[6.749585083164395,7.771276351876964],[6.749766332250388,7.771277312427566],[6.7497701842400515,7.770554221854002],[6.749951433039465,7.770555182236962],[6.750025129614571,7.76923642119507],[6.750419522727354,7.769431116357718],[6.750499029958119,7.7698349719610045],[6.750497104813349,7.770196517445119],[6.750678353550315,7.770197477474071],[6.750676428468024,7.770559022996794],[6.75067450329342,7.770920568512942],[6.750855752363076,7.770921528555093],[6.750853827250974,7.771283074109785],[6.750851902046563,7.771644619657882],[6.751033151448939,7.771645579713212],[6.751032188889533,7.771826352507399],[6.751030263701494,7.7721878980907295],[6.751211513359219,7.772188858136633],[6.7512095882337215,7.7725504037585615],[6.751206700372421,7.773092722179102],[6.751387950440283,7.773093682260754],[6.751383137263808,7.77399754637479],[6.7513821745592955,7.77417831919267],[6.751378323510524,7.774901410447561],[6.751377360690649,7.775082183257148],[6.751361952434748,7.777974547985538],[6.751180700275615,7.777973587293862],[6.751179736986019,7.778154360052695],[6.751360989222633,7.778155320766965],[6.751359062729182,7.77851686632491],[6.751357136143435,7.778878411876253],[6.751355209465395,7.779239957421],[6.750992704085339,7.779238035644039],[6.750991740556721,7.779418808368712],[6.750810487823803,7.7794178473416995],[6.750891241378001,7.779697805869141],[6.751244478019964,7.779993624785273],[6.750518222020121,7.781667656018864],[6.750434487348099,7.781946742078476],[6.7514648404682545,7.7817835384979395],[6.7513388289756024,7.7823130942837855],[6.751520083017895,7.7823140554404],[6.751519119329528,7.782494828204731]],[[6.746307691183406,7.791014445924371],[6.74621830114697,7.790782437811024],[6.745966377992657,7.790600320167442],[6.746220235124736,7.790420893744999],[6.746401492010643,7.790421858085541],[6.7466534153430215,7.790603975494739],[6.746399558188093,7.79078340219685],[6.746307691183406,7.791014445924371]],[[6.7463266582724835,7.79281119662362],[6.746168562877219,7.792651827658423],[6.746389887687724,7.792591122654017],[6.7463266582724835,7.79281119662362]],[[6.751662005784938,7.79395816380465],[6.751385619018035,7.793641399753475],[6.751823773421292,7.79334311587075],[6.751662005784938,7.79395816380465]],[[6.752837961020336,7.807087619937521],[6.753089896157563,7.807269737018364],[6.752836028542171,7.807449165371606],[6.752654763521507,7.807448201695045],[6.752655729849905,7.807267429001425],[6.75247446493009,7.807266465269873],[6.752477364010213,7.806724147246794],[6.752481229127422,7.806001056526126],[6.752574107029481,7.805581358206018],[6.752662493502818,7.806002020099603],[6.752843757901281,7.806002983595519],[6.75284182569989,7.806364529049467],[6.752837961020336,7.807087619937521]],[[6.7590914749119575,7.807069917834888],[6.759181282310912,7.807302071674154],[6.759362548082928,7.8073030325355175],[6.759361584632485,7.807483806063406],[6.759540923690992,7.80784631396552],[6.759722189742376,7.807847274739274],[6.759721226378517,7.808028048307206],[6.759720262991663,7.808208821873501],[6.759901529221622,7.808209782614696],[6.759900565889567,7.808390556201759],[6.759899602534519,7.8085713297872426],[6.760080868943058,7.808572290495871],[6.760079905642815,7.8087530641021825],[6.760078942319581,7.808933837706811],[6.760319039834311,7.809056570872582],[6.760439549112564,7.809297306275672],[6.760620815901266,7.80929826684155],[6.7606198527424715,7.809479040508755],[6.7608011196319655,7.809480001019541],[6.760800156527992,7.809660774707563],[6.760981423518273,7.809661735163252],[6.761162690531538,7.809662695541342],[6.761161727560197,7.809843469272684],[6.761342994674227,7.809844429595671],[6.761342031757716,7.810025203347866],[6.761523298972556,7.810026163615748],[6.761522336110879,7.810206937388797],[6.761521373226226,7.810387711160164],[6.761291758184817,7.810650664735141],[6.761159801548574,7.810205016730442],[6.760978534301881,7.81020405628486],[6.7609794973969946,7.810023282579299],[6.760798230251094,7.810022322078609],[6.760799193401035,7.8098415483939085],[6.760617926355928,7.809840587838122],[6.760618889560693,7.809659814174278],[6.760437622616379,7.809658853563394],[6.760438585875965,7.809478079920375],[6.76007843927689,7.80929398012333],[6.759897675755448,7.808932876953168],[6.759716409214305,7.808931916121935],[6.759717372693137,7.808751142562321],[6.759536106252789,7.808750181676012],[6.759537069786421,7.808569408137228],[6.759355803446866,7.808568447195841],[6.759356767035296,7.808387673677893],[6.759028613301421,7.8083197942379226],[6.759177428060005,7.8080251656856685],[6.759178391657231,7.8078443921852765],[6.758997125674841,7.807843431178783],[6.758998089326854,7.807662657699246],[6.759000016561877,7.807301110735213],[6.75877762439784,7.807212827713144],[6.7590914749119575,7.807069917834888]],[[6.761865358513346,7.81117449377644],[6.761439415940313,7.810949160051533],[6.7617007149370645,7.810750218978126],[6.761865358513346,7.81117449377644]],[[6.7793213932789165,7.803721290309459],[6.779501328486436,7.803974461325322],[6.779500374103278,7.80415523737258],[6.779317775485245,7.804406504707671],[6.779137840298932,7.804153333597463],[6.779138794837597,7.803972557594834],[6.7793213932789165,7.803721290309459]],[[6.778896222936614,7.80383013399854],[6.778738103213483,7.803670778106759],[6.7789594372118165,7.803610053647697],[6.778896222936614,7.80383013399854]],[[6.762048200833779,7.7794772848566875],[6.761973421663281,7.779887714908662],[6.761812094651893,7.77957658537842],[6.762048200833779,7.7794772848566875]],[[6.762309985241416,7.777983166061106],[6.762471312400506,7.778294295354475],[6.76223520699316,7.778393596333598],[6.762309985241416,7.777983166061106]],[[6.76217198943568,7.778613675770219],[6.76201389014138,7.778454312433265],[6.76223520699316,7.778393596333598],[6.76217198943568,7.778613675770219]],[[6.752742231410623,7.757011598455964],[6.752839808410375,7.7578255938236005],[6.752815455767386,7.758012769876403],[6.753074331263097,7.758457399506186],[6.752991132360635,7.759096877778624],[6.752380062747723,7.759801749679197],[6.751927590635021,7.758714689305729],[6.7517281113063605,7.758372071955142],[6.751572268703682,7.757364241290126],[6.752479858390674,7.7571105980115584],[6.752742231410623,7.757011598455964]],[[6.757132299744665,7.749442060352723],[6.757215403419416,7.749899531691169],[6.7575871757254395,7.750072095515756],[6.757756255177342,7.750444716939989],[6.758832127921339,7.751413754927978],[6.758251626863327,7.75246597744683],[6.757564724059291,7.752421511657804],[6.757259245804181,7.753390043304237],[6.756706519966085,7.753683030590593],[6.756298589971996,7.750978137505004],[6.756496803662297,7.750618860547212],[6.756673649567809,7.749524946892581],[6.757132299744665,7.749442060352723]],[[6.792959792676299,7.817836881158417],[6.793355129235977,7.817321236344832],[6.793933473649007,7.817247133169406],[6.794167497402262,7.817743042225054],[6.793376370318803,7.818170139546172],[6.792959792676299,7.817836881158417]],[[6.78330108887033,7.839608327778125],[6.783482371583334,7.839609282208838],[6.783481414506221,7.839790058441698],[6.78348045740635,7.839970834672874],[6.783479500283723,7.840151610902367],[6.782935651509848,7.840148747176025],[6.782936608866849,7.839967971013363],[6.782937566201086,7.839787194849015],[6.782817504757194,7.839725831397925],[6.7825468594261835,7.839185265311853],[6.782819198575918,7.839002715535881],[6.782940438067218,7.83924486634599],[6.783121720578488,7.839245820887955],[6.783120763390656,7.839426597079554],[6.783302046002804,7.839427551565894],[6.78330108887033,7.839608327778125]]]}}]}