{"type":"FeatureCollection","features":[{"type":"Feature","properties":{"date":"November 2, 2025","status":"Post-flood reference","mapped_area_km2":26.72},"geometry":{"type":"Polygon","coordinates":[[[6.7705061732238985,7.83999118146947],[6.771063014064196,7.840174636876148],[6.771167041371464,7.840217357683928],[6.772352176244459,7.840219957884605],[6.77179996959002,7.839807148469488],[6.771081442686447,7.839373428180535],[6.770795524236278,7.8389999599071984],[6.770083051792823,7.838813604821632],[6.769711690846125,7.838271101663279],[6.769530410414868,7.838270141468935],[6.769531373323907,7.838089366943243],[6.769109753728596,7.837855994454384],[6.769300689126929,7.837481798806574],[6.769532336210044,7.837908592415913],[6.769713616485097,7.8379095525654305],[6.76989489678305,7.837910512637068],[6.769893934053113,7.838091287209223],[6.770435850258679,7.838455716297852],[6.770437775318624,7.83809416702405],[6.770800336276767,7.8380960865111735],[6.770981616790171,7.838097046137908],[6.770738468911334,7.837559563155461],[6.771068146884597,7.837674415935149],[6.77116289732646,7.838098005686759],[6.771344177885611,7.838098965157721],[6.7714658447575,7.837858098473674],[6.771528344480129,7.837557600224422],[6.771046687743509,7.837313540620964],[6.7709864278679985,7.8371931725882344],[6.770805147745079,7.8371922130735],[6.770808034351422,7.83664988899098],[6.77026419482281,7.836647010181154],[6.770265157213408,7.836466235550819],[6.7700838774943985,7.836465275814207],[6.770084839940187,7.836284501204637],[6.769634909045781,7.83600914191139],[6.769255213026302,7.8358229565628825],[6.768907166389917,7.835828196247094],[6.767197858124916,7.83373829550138],[6.767198821476181,7.833557521225578],[6.7669560055035864,7.8336762831689075],[6.766472745628439,7.833734452139104],[6.766380872270689,7.8339655030300115],[6.766291467561637,7.8337334911039305],[6.766141692780107,7.833616934965188],[6.76585433939271,7.832906028876194],[6.765469884712717,7.832606834623271],[6.764672767957194,7.832276552267189],[6.764403997568855,7.832921612416805],[6.764198539602957,7.833078025353697],[6.763785594169133,7.833605701253801],[6.763461383441768,7.832803594422289],[6.7635793209087565,7.832035996710518],[6.762842054419556,7.831590943894126],[6.762228072465428,7.831827888588644],[6.761807024842361,7.831763554033457],[6.760968546738498,7.83125308752144],[6.7602209433289335,7.8310916124297005],[6.758868884865929,7.830666008723819],[6.7584456558618795,7.830113141431972],[6.758336527905293,7.829714118277898],[6.759347648563186,7.830461202759353],[6.761690627651482,7.830900281176318],[6.762219937818466,7.831097315427423],[6.763138908888502,7.831269527928979],[6.764030774215132,7.831468484375614],[6.764949747921885,7.831640693361524],[6.765033127641387,7.831738247516174],[6.7657582359699875,7.831742092381336],[6.765757272223663,7.8319228664942075],[6.765938549441204,7.8319238275383976],[6.7668555994064725,7.832457580659797],[6.767022360198467,7.832652689232575],[6.767384915601795,7.832654610333107],[6.767383952443192,7.832835384639608],[6.7675652302572935,7.832836345095566],[6.767927785954254,7.8328382657739795],[6.767926823006871,7.833019040146154],[6.768108100967791,7.833020000391044],[6.768470656958294,7.833021920647318],[6.768469694222144,7.8332026950850855],[6.76865097232983,7.833203655118895],[6.768749817643317,7.83311964088752],[6.768725183161172,7.832792190900436],[6.767979259429342,7.832563916980929],[6.767522916218155,7.8320300027490175],[6.766456045664453,7.831619788395757],[6.765776607820038,7.830824848155743],[6.764617122308169,7.830470004730169],[6.764414132985769,7.830009798081923],[6.764224593825269,7.8300239740247815],[6.763870961659396,7.8299713464815985],[6.764289755049727,7.829615387562802],[6.7640316201615525,7.828902715419705],[6.764077299223797,7.828371208941252],[6.76250494546477,7.827005696165049],[6.762259261999812,7.82625565092576],[6.76323509847922,7.826953452983975],[6.7636953362275465,7.826919029859388],[6.764445166340183,7.827972167826067],[6.7644086743685685,7.828396780089432],[6.765386831957349,7.828838277347115],[6.765126275479317,7.8292982228867825],[6.765322903609145,7.829654101244677],[6.765489161051439,7.830031028489893],[6.766015174511983,7.829991685089704],[6.767475997647533,7.831305969614924],[6.76803146272548,7.831657025861242],[6.768936240909162,7.832371406870593],[6.768918978002686,7.832572345741288],[6.768934162371265,7.832774274984594],[6.7693589371731875,7.832742500771942],[6.7690992548761475,7.832025577493912],[6.769661926411655,7.831859882411467],[6.769836004707554,7.831660539441536],[6.7715033820083095,7.8328924370018305],[6.7714516272235254,7.833494677175864],[6.771832908726046,7.834184733103474],[6.771747613242679,7.834569169618348],[6.771003341443934,7.834149890558402],[6.770631756679755,7.833715147097713],[6.7697396036467365,7.833028639092505],[6.769812114878112,7.833316745376487],[6.770098311777369,7.83375365649591],[6.770218368866566,7.833815022589893],[6.77045940667658,7.834296494439912],[6.771059693622304,7.834603324435488],[6.7711802131235865,7.834844060310048],[6.771802208866307,7.83530929998643],[6.772433963400704,7.8356542022175555],[6.772013369472767,7.834545526778248],[6.772410009881821,7.834596856992166],[6.772708606254754,7.835314093492168],[6.773209801385269,7.8357186965927275],[6.774168653524089,7.836925808915675],[6.7746892357583,7.83785548483671],[6.775069071178736,7.838379833689342],[6.775866596514476,7.839930679634417],[6.775968486715342,7.840009970372032],[6.77602812518294,7.840228001731075],[6.778484966678955,7.8402333599795675],[6.778405504963388,7.839763304310006],[6.77817380541053,7.839671691285644],[6.778406464227853,7.839582528701526],[6.778531755567727,7.839142875833337],[6.778872837409266,7.839302180522967],[6.779032357862093,7.839696785160713],[6.7797509956946875,7.84023399190871],[6.779758547510774,7.840236131950782],[6.7800345805523445,7.840236732233345],[6.780036086784011,7.839952686320814],[6.780460405120727,7.840216500364704],[6.7803690031617485,7.840237459251776],[6.788225162971112,7.840254461706076],[6.788193819989705,7.839995623684216],[6.7883751034727755,7.839996576055974],[6.788373739408543,7.840254781845007],[6.788535143006535,7.840255129563287],[6.7884599235989675,7.839850701348983],[6.787278229161982,7.837821864121293],[6.7854965582494735,7.835823469388238],[6.785315276926369,7.8358225162818105],[6.78531623272203,7.835641739789701],[6.785134951499682,7.835640786627665],[6.785135907350684,7.835460010156175],[6.7845395130396575,7.835044733824507],[6.784415563476487,7.834552314881281],[6.784234282836316,7.834551361463516],[6.784235238941214,7.834370585093332],[6.784053958401858,7.834369631619983],[6.784054914562074,7.834188855270421],[6.782888632732026,7.833181699985203],[6.7804011504579496,7.83174143671562],[6.779942541947691,7.831534461202532],[6.779719515760605,7.831273535829916],[6.779295175890283,7.831162553989391],[6.778997275131305,7.830727387935948],[6.7788159968133845,7.830726432651334],[6.77881695478138,7.830545656915102],[6.77863567656429,7.830544701574994],[6.778636634587508,7.830363925859341],[6.778455356471246,7.830362970463744],[6.778456314549683,7.830182194768772],[6.778275036534271,7.8301812393176915],[6.778093758541647,7.8301802837888035],[6.778094716753317,7.8299995081368206],[6.778095674942176,7.829818732483192],[6.777914397128402,7.8298177769211526],[6.777915355372468,7.8296370012881695],[6.777734077659524,7.829636045670657],[6.777735035958791,7.829455270058323],[6.777553758346675,7.82945431438534],[6.777554716701142,7.8292735387936965],[6.777314601462658,7.82915081086828],[6.777194078653933,7.82891007616008],[6.777012801344305,7.828909120320708],[6.777014718361563,7.828547569259835],[6.77683344123079,7.828546613387348],[6.776834399783191,7.828365837876714],[6.776553633591419,7.828222333559384],[6.7764747217343215,7.827821599535313],[6.776293444984025,7.827820643518832],[6.776294403679121,7.827639868068596],[6.776115044507321,7.827277361135896],[6.775933768036645,7.827276405030891],[6.775934726819236,7.827095629620384],[6.775753450449383,7.827094673459952],[6.77575440928713,7.826913898070113],[6.775573133018099,7.826912941854258],[6.775575050781062,7.826551391114333],[6.7753937746908575,7.826550434865411],[6.775394733616069,7.8263696595152705],[6.77515405250491,7.826246639727038],[6.77479448173288,7.825523321835244],[6.774393662258307,7.825318452481475],[6.77431475234459,7.824917718735192],[6.774033989467203,7.8247742136076335],[6.773955079871989,7.824373479909884],[6.773714256943582,7.824250387251362],[6.77341509299144,7.82364750912917],[6.773233818422901,7.823646552305005],[6.773235737390538,7.823285002086658],[6.772954976021594,7.823141496641114],[6.772876067381493,7.822740763088949],[6.772624112916826,7.822558652894035],[6.773053295528797,7.82225530436335],[6.771741879557722,7.8219028584305335],[6.77143259578219,7.821467681064165],[6.771005750483555,7.821356036130139],[6.770243537864891,7.820855303252762],[6.770168485090628,7.820557103803345],[6.769887726912334,7.82041359710697],[6.769808821142469,7.820012863902218],[6.76962754859012,7.820011905971471],[6.76962850918649,7.8198311312778],[6.769629469759965,7.819650356582447],[6.769630430310544,7.819469581885435],[6.77017424733506,7.819472455242884],[6.770355519722346,7.819473412873304],[6.77020758895518,7.819172639627568],[6.772351436187848,7.819122391608855],[6.772713981222712,7.819124304837705],[6.772613615552969,7.818847220454504],[6.773396005093548,7.818616802372751],[6.775117329875329,7.819257508060698],[6.776345941302642,7.820031282043552],[6.7765149639992535,7.820229028256268],[6.776877511019921,7.820230938179208],[6.776876553494517,7.820411713764616],[6.777672799437748,7.820619965728963],[6.777781007494989,7.820778038712862],[6.777962281387387,7.820778993236225],[6.778324829240615,7.820780902049806],[6.778323872270153,7.820961677808866],[6.778625202169034,7.821023995170298],[6.779346967720304,7.821386531068429],[6.779408647199175,7.821509730187355],[6.779589921608494,7.821510684100546],[6.779952470495551,7.821512591693773],[6.779951514135265,7.821693367647059],[6.780132788690912,7.8216943213494],[6.780958123477406,7.821779053515107],[6.782224927295117,7.822147012771609],[6.782305218957553,7.822248088434486],[6.782945983400426,7.8223351240546455],[6.784497385501859,7.823312142271502],[6.785002205657615,7.82390273453499],[6.785389954749508,7.824239443620143],[6.785556724055627,7.824434545738388],[6.786132972321133,7.82458524597581],[6.786279921898775,7.824799905189689],[6.786642475276097,7.824801807832274],[6.786641521390403,7.82498258457982],[6.786822798191127,7.8249835358067195],[6.786821844360682,7.825164312574823],[6.7871843981862305,7.825166214839829],[6.787546952102645,7.825168116793798],[6.787545998561369,7.825348893649205],[6.7877272756316,7.825349844531786],[6.788089829840232,7.8253517460636575],[6.7880888765101695,7.825532522984094],[6.788270153726521,7.825533473655614],[6.788451430965579,7.825534424249373],[6.788450477768762,7.825715201212618],[6.788992403862215,7.82607960664875],[6.789084263178305,7.825848546764909],[6.789173681425993,7.826080556998107],[6.789717514253536,7.826083407579571],[6.789716561534487,7.826264184693331],[6.790361333635842,7.8265270986207085],[6.790853757342949,7.826826839873452],[6.790981697219293,7.826993942543743],[6.7911629754225835,7.826994892148629],[6.791344253648549,7.826995841675737],[6.7913433015179745,7.827176618981016],[6.79170585819389,7.827178517846284],[6.791704906196631,7.827359295194269],[6.792248741614543,7.827362142975385],[6.792247789828602,7.827542920388292],[6.792610347043198,7.827544818564491],[6.792609395390588,7.827725596020129],[6.792790674109857,7.827726545013734],[6.793273292453671,7.827789802765775],[6.7939950877327595,7.828152320261017],[6.794056772557505,7.8282755186800115],[6.794419330849174,7.82827741547785],[6.794418379885978,7.828458193148546],[6.794599659143774,7.828459141452942],[6.794780938424231,7.828460089679543],[6.794779987594408,7.828640867392928],[6.795142546379256,7.828642763657063],[6.795141595682813,7.828823541413022],[6.7953228751872015,7.828824489450552],[6.795685434263858,7.8288263852922215],[6.795684483778817,7.829007163113061],[6.796047043102038,7.82900905868784],[6.7960460927503945,7.829189836551294],[6.796408652320151,7.829191731859168],[6.796407702101913,7.829372509765232],[6.796770261918172,7.829374404806184],[6.796769311833347,7.829555182754894],[6.797719197859274,7.829831395306624],[6.799271939305415,7.830752554873375],[6.79948092237891,7.831015612159027],[6.79966220336226,7.831016558594752],[6.799661254322423,7.831197336882523],[6.799842535406418,7.831198283262537],[6.799841586422028,7.83137906157074],[6.800022867606648,7.8313800078950395],[6.800021918677709,7.83156078622371],[6.800203199962954,7.831561732492293],[6.800384481270787,7.831562678683049],[6.800383532475344,7.83174345705429],[6.800564813883798,7.831744403189322],[6.800563865143815,7.831925181580987],[6.800745146652874,7.831926127660293],[6.800744197968355,7.832106906072396],[6.800925479578058,7.832107852095971],[6.800924530949007,7.8322886305284944],[6.801105812659335,7.83228957649634],[6.801104864085755,7.832470354949316],[6.80146647929018,7.832653025191221],[6.801647761224327,7.832653970969747],[6.801646812839755,7.832834749485687],[6.801828094874505,7.832835695208468],[6.801827146545419,7.833016473744794],[6.802008428680812,7.833017419411825],[6.802248557002587,7.833140135868259],[6.80236909676176,7.833380867712615],[6.802550379120982,7.833381813190289],[6.8025494310364305,7.833562591810019],[6.802730713496214,7.833563537231927],[6.802729765467164,7.833744315872079],[6.802911048027608,7.833745261238223],[6.802910100054064,7.83392603989881],[6.803311106159589,7.834008947801132],[6.8033871996993005,7.8341609148889635],[6.803422412476834,7.818423975419153],[6.802907570362781,7.818099776624624],[6.802081873962743,7.818161614441937],[6.801296057082271,7.817719000354637],[6.80067269952742,7.816714873514069],[6.7998950653270525,7.816039648430817],[6.79942611423562,7.8154910590613405],[6.797535829583817,7.81412245117286],[6.7960326960540955,7.813197203480222],[6.795152083145298,7.8125675890143755],[6.793524297904983,7.812069551193515],[6.7923362417678215,7.812158510761148],[6.791179369654408,7.8114299768981],[6.790800756651786,7.810987039707401],[6.7902452865584495,7.810636015478401],[6.789927143774509,7.809914839004581],[6.790535369737115,7.8090687928245615],[6.791129288673033,7.809763618460493],[6.7917109130275515,7.810268667735716],[6.791884379167319,7.81047160559728],[6.792059968292098,7.8102704917402015],[6.792985329978016,7.8101071441932906],[6.792784646515048,7.8095531941355505],[6.793132776306283,7.809385627846369],[6.794054830151081,7.81011357277221],[6.794792524372082,7.8102847608792505],[6.794875907085695,7.810382309963595],[6.795170629245418,7.810451133884093],[6.795955139142962,7.810814050569473],[6.795835082407558,7.810459367138067],[6.796252779953249,7.810322206928758],[6.796505455751105,7.810752376721975],[6.796686727622032,7.810753322000737],[6.7966857797889055,7.810934100098158],[6.797408972698576,7.811299436892545],[6.797640871104472,7.810506285084333],[6.7989583726973075,7.811568421727425],[6.7990375827342735,7.811850273847281],[6.799269276388924,7.8119418724903396],[6.799036635777344,7.812031052222412],[6.7991134191225555,7.812135120722266],[6.800183400921989,7.812733944416475],[6.8003766502773,7.813226400573224],[6.800741256508075,7.813820838367638],[6.800979103332298,7.815005116957786],[6.802025196523325,7.814831114249247],[6.802102196071761,7.815120334074019],[6.802333892471389,7.815211931708969],[6.802101250031991,7.81530111279506],[6.801919975537129,7.815300169292629],[6.801666114672784,7.815479631452262],[6.801918083234154,7.8156617266855894],[6.801919029396923,7.815480947989927],[6.80210030396966,7.815481891514444],[6.802347747935992,7.815641690541513],[6.80209651949472,7.816205006375413],[6.802459069330911,7.816206893368128],[6.802536307495116,7.815868039029233],[6.803227733734736,7.815602893984527],[6.803367335508359,7.815850051754391],[6.803428086679334,7.815881098550401],[6.803430057335609,7.814997496390207],[6.803105990783404,7.814489368526616],[6.802542192051612,7.813962930673264],[6.802857292516628,7.813591046924131],[6.803432303513927,7.8139900671327585],[6.8034332688158266,7.813557026843904],[6.802714187852405,7.813263837483186],[6.802476093822211,7.812952875490015],[6.801842732248994,7.812768710995647],[6.800588950492785,7.81175796161106],[6.800307438178695,7.811676103959339],[6.800118501401954,7.811429340144009],[6.799683883562923,7.811362976862289],[6.799381062525078,7.81175003317665],[6.799298024844801,7.811402527304375],[6.799370832803174,7.810928336439339],[6.798217232231311,7.810501763445671],[6.7976987669746975,7.810114218741572],[6.796769900429491,7.809951870196149],[6.795837085864333,7.8095805323690035],[6.794506700056941,7.80938483364034],[6.793866484407152,7.808886662221092],[6.793908423776206,7.808613549881562],[6.793515557128367,7.808307846165671],[6.7934371243053,7.8082054071533795],[6.793155616909058,7.8081235457717515],[6.792632908012991,7.8079200344362425],[6.792069894344232,7.8077563106356935],[6.791909726548434,7.807554692188515],[6.7913467138820645,7.807390967636612],[6.790106323781208,7.806849268744972],[6.788259328404651,7.806571305233084],[6.787543134351852,7.806146393251158],[6.787286312542639,7.8058230864815465],[6.786861992377554,7.805712119468776],[6.786564092909284,7.805276960450277],[6.78627598358408,7.80520161503732],[6.785744562721704,7.8048525206647605],[6.785660607357939,7.804729884495572],[6.785016279930882,7.804561379953025],[6.784757124503107,7.804182807254642],[6.784332807256161,7.804071838344566],[6.784034911594282,7.803636678571212],[6.783565537068891,7.803560381912628],[6.783034121110761,7.803211285318592],[6.7829501668828085,7.803088648915708],[6.782476398040016,7.802936323128386],[6.779636765167403,7.800864124588222],[6.779252466005476,7.80026369778513],[6.77747296840244,7.798286797783746],[6.77726305576808,7.798090771660278],[6.776730033976541,7.797357957968914],[6.776183111787267,7.796638852507244],[6.775917079851726,7.796182057667158],[6.775540236303228,7.795919634331425],[6.775378066412133,7.795275322136684],[6.775196803830944,7.795274369599716],[6.775197758961299,7.795093594007276],[6.775016496480605,7.795092641415206],[6.775018406828133,7.794731090270126],[6.774612415118487,7.794351942303929],[6.772956005737116,7.791191581574459],[6.771891275834271,7.789493721542524],[6.771786286729454,7.7889291248383365],[6.771531083258989,7.78869928608325],[6.770434793500351,7.786671030264402],[6.770349599998814,7.786390645455633],[6.770095373178185,7.786161683273873],[6.7687226724775,7.783681512340503],[6.768470173471121,7.7828504594949415],[6.768036694895842,7.782224529346227],[6.767221621699592,7.779019170915082],[6.7674896613897735,7.778782839175456],[6.767403944151245,7.778507770267916],[6.767218608309385,7.777971351730101],[6.767013880687983,7.777314384891851],[6.766154298165952,7.774885598689571],[6.765789627789345,7.773986677210108],[6.765351715675207,7.772847322037341],[6.764686622407723,7.771577558516273],[6.764811999885684,7.770995219947724],[6.764383707165977,7.770864144467621],[6.764189659839893,7.7699909313579],[6.763964287014316,7.7697951950460356],[6.763650693351139,7.76908419649722],[6.763457806268425,7.768735072379209],[6.762602890994778,7.766735134537237],[6.762371895419162,7.764627095544358],[6.762462613411748,7.763570895791178],[6.762346952857689,7.762033662733552],[6.762432313349198,7.761039825703096],[6.76239149141685,7.760497272865454],[6.762507887084081,7.7591420402299],[6.762388752911166,7.757558623111898],[6.762534185022273,7.756159318945711],[6.762435614135027,7.756076774528026],[6.762241910951329,7.7542678407792325],[6.7619062185586465,7.753362300075075],[6.761482541465288,7.75175734933818],[6.760871220028297,7.750306173468463],[6.760756162038193,7.7496419130841945],[6.760542512526532,7.7494931173935],[6.760363600910636,7.748782196407729],[6.74855319426872,7.748755795592137],[6.748541913581395,7.748968678143368],[6.748336579473127,7.748921614568411],[6.747974650194188,7.749153981126363],[6.7477008172494894,7.748753877522155],[6.747599801289939,7.748753650096836],[6.747397944641197,7.7492831540198965],[6.747880938172073,7.750031609935486],[6.74734149185397,7.750113484548824],[6.747495770820561,7.75435558467246],[6.747065018620299,7.75437032940232],[6.746794061560722,7.754117247230778],[6.746884998221491,7.752099621938729],[6.746875663807619,7.751828406226302],[6.7469204643002625,7.750834366872326],[6.7468800222016085,7.749659098775074],[6.7468964596583305,7.7492943094800015],[6.746522800675943,7.749116001191415],[6.746875936162991,7.748793101472938],[6.746877787385874,7.748752023871166],[6.74585151673308,7.748749710246216],[6.74586354841106,7.748825269360226],[6.745778019336925,7.749382099627773],[6.745822077678816,7.749690782154067],[6.746277288956633,7.749626145171251],[6.746550048027275,7.750301063416273],[6.746496244013113,7.750651343977897],[6.746564762281617,7.751131411424981],[6.746144613265516,7.7514513459350285],[6.745778055240549,7.7523312961275765],[6.745683386851412,7.755166475039646],[6.74568146127405,7.755528019569666],[6.745862703124016,7.755528979848424],[6.745839590834494,7.759867514236742],[6.745838627533359,7.760048286482307],[6.746086129047533,7.760279459592398],[6.746186665193308,7.762761792105264],[6.746185701676796,7.762942564369673],[6.746184738137161,7.763123336632431],[6.746183774574402,7.763304108893518],[6.746289479550831,7.763389458434929],[6.746613524021183,7.765808908888106],[6.746350564761003,7.766016653972659],[6.746347673125493,7.7665589707396085],[6.746166426490612,7.766558009310777],[6.746079132858747,7.76719699197576],[6.745190510126446,7.768256924626276],[6.744971491558959,7.7684431042572815],[6.74479037484784,7.769031715245205],[6.744520734911799,7.769260933192966],[6.744437670380782,7.769722431450237],[6.744068683977687,7.770985701438006],[6.743967338470421,7.7710657645963],[6.743962510693298,7.7719696241622245],[6.74378126203748,7.771968661050281],[6.743780296335195,7.7721494329358665],[6.743779330609761,7.7723302048197835],[6.744010987096016,7.772421824351398],[6.743778364861176,7.772510976702023],[6.7437773990894385,7.772691748582625],[6.743845309779781,7.775681655221347],[6.744041904960969,7.776037529304647],[6.743840562052583,7.776392981502095],[6.743976913294841,7.778206507855368],[6.743813003971964,7.7801135702989805],[6.744066685324489,7.782835462088249],[6.743598624819288,7.783661754868024],[6.742946672620039,7.783606012192503],[6.742728600001374,7.783655341580074],[6.74345188777559,7.7839818517608945],[6.743618622209483,7.784176966264742],[6.7438124609196235,7.784345324720662],[6.743884220075523,7.786612143366098],[6.743883252575514,7.786792915140221],[6.744032202854509,7.78741196762926],[6.743879382343961,7.787516002220133],[6.743878414728193,7.787696773985965],[6.7440977367215496,7.787887269747945],[6.744376881511274,7.789143723545856],[6.744867101588145,7.790497355657951],[6.745031903486268,7.791054014239652],[6.745403132582248,7.791946425621299],[6.745843212005408,7.793130544485942],[6.746024470009377,7.793131509321002],[6.746022535182466,7.793493053291993],[6.74612936658885,7.793567459875713],[6.746275318057388,7.793962892335143],[6.746556290167952,7.794398274010311],[6.746738862979763,7.795123860641696],[6.746835785035396,7.795208040019557],[6.747547077756277,7.796453747714354],[6.747636454630257,7.796755632838768],[6.747756497568553,7.7968170014963],[6.7479960731301265,7.797299878389621],[6.748177333197598,7.797300842815951],[6.748175399170912,7.797662387253915],[6.748174432122905,7.797843159470418],[6.748173465051786,7.798023931685284],[6.748535985877545,7.798025860486524],[6.748535018938688,7.798206632744895],[6.748716279463914,7.798207597051921],[6.7487153125796375,7.798388369331335],[6.7490040957992115,7.798536001061372],[6.749073966708163,7.799113387040105],[6.749348847768608,7.799201792641734],[6.749557463828728,7.799428752734599],[6.7494190847610165,7.802369217592186],[6.749540606666769,7.802486907786514],[6.7498554298588305,7.805175397466508],[6.750146964448244,7.8066344870620705],[6.749995627139396,7.812495825544391],[6.74999972336382,7.81276701357315],[6.749995054408891,7.8129477661761815],[6.750015537451741,7.814303706296445],[6.7499175101172675,7.818099510261051],[6.749957126721591,7.820722664251928],[6.7495760190985825,7.821450839006578],[6.74958682859902,7.822166778966691],[6.749350103006774,7.823067862316128],[6.749577295167796,7.823972001069711],[6.749478319878643,7.825147485589685],[6.74958515860346,7.825221892285093],[6.749731116122981,7.825617329823285],[6.749958613115829,7.825969831417633],[6.749631685459786,7.826192363635108],[6.7501058911162115,7.826927136591593],[6.750261356421077,7.82815104228268],[6.750368195955382,7.828225449026644],[6.750460074996609,7.827994403713021],[6.750549469656326,7.828226416233474],[6.750548499793933,7.828407188485699],[6.750780186220455,7.828498813317233],[6.750547529908447,7.828587960736178],[6.750620024332051,7.828876065730592],[6.750831764215152,7.829386423716297],[6.750976753491209,7.829962633788701],[6.7513355806796564,7.830518625467809],[6.750935508314288,7.831454451831641],[6.751225015680207,7.832657618319485],[6.75078013432266,7.832820918807361],[6.75062951505607,7.833293593468989],[6.751001494072809,7.833552652415012],[6.750881945492583,7.833832290858867],[6.750880975070406,7.834013063104618],[6.75175418406674,7.834080469475273],[6.751534235516223,7.834523559920212],[6.751241587026111,7.834376542997054],[6.751149705962822,7.834607588142034],[6.7510603105798825,7.834375575333037],[6.750781252227377,7.8342693067307945],[6.750587282686849,7.835914605622551],[6.751076871646626,7.8364462434420545],[6.7513156379310475,7.835905185906447],[6.751533040953659,7.835742290702282],[6.751494256138523,7.836102601115418],[6.751748451560186,7.836269051367602],[6.751678769382586,7.83554913742492],[6.751780565766757,7.835283307274071],[6.752390278714212,7.835382469422091],[6.75261016811829,7.836256326153404],[6.75296731099729,7.836809697164001],[6.753113272961621,7.837205136069945],[6.753325987397852,7.837534721462412],[6.7533975138266005,7.8380035997166875],[6.753578792134372,7.838004566820215],[6.753576852547692,7.8383661119110375],[6.753758131034723,7.838367078981831],[6.753756191511993,7.8387286241111065],[6.754269682142122,7.838530478656374],[6.755163534179917,7.839698133470101],[6.75575497379246,7.839788514265802],[6.756073631687451,7.839023785300046],[6.756212766098256,7.839182029670308],[6.756400365139112,7.839646178656321],[6.758169611411605,7.838854172219331],[6.758294571697052,7.839370150514464],[6.757814926664063,7.839735282494304],[6.757843075704896,7.839932522760721],[6.757686943518246,7.840187547295756],[6.765003573736266,7.8402037811440595],[6.76485611007749,7.840131469738858],[6.763991201771093,7.840144477205689],[6.763813703460545,7.839774634715075],[6.763629745825932,7.839596494327406],[6.762936401537468,7.838869149654834],[6.76145210964517,7.838380102880091],[6.761467766307862,7.8377736379167935],[6.76076870487543,7.837430832469735],[6.760195406390512,7.837038838613472],[6.760204610257048,7.836682309540333],[6.7596496008914455,7.835944774767435],[6.760708000686429,7.835971945863183],[6.762069202219149,7.837013387081023],[6.7640977288681645,7.838008124749734],[6.765626596045869,7.838511847734824],[6.765721597484213,7.838611507500091],[6.767102357233494,7.838687754055215],[6.7682715398081585,7.839078108980461],[6.7684369475612955,7.839349024979262],[6.768823511409923,7.83918952056769],[6.769495217869681,7.839630788814961],[6.7702478306800975,7.839720178641639],[6.7705061732238985,7.83999118146947]],[[6.758115843825407,7.8296510586325985],[6.758275650369938,7.829493385413788],[6.758336527905293,7.829714118277898],[6.758115843825407,7.8296510586325985]],[[6.779623624802207,7.8397243956811975],[6.779946545935487,7.839526644805676],[6.780036086784011,7.839952686320814],[6.779623624802207,7.8397243956811975]],[[6.787973119241007,7.839932577271098],[6.788132928289453,7.8397748902428885],[6.788193819989705,7.839995623684216],[6.787973119241007,7.839932577271098]],[[6.769409745044773,7.819406529154799],[6.769569549086868,7.819248849310542],[6.769630430310544,7.819469581885435],[6.769409745044773,7.819406529154799]],[[6.800207739140095,7.811905128201699],[6.799890184833466,7.811747209068212],[6.800307438178695,7.811676103959339],[6.800207739140095,7.811905128201699]],[[6.751599288860956,7.8352823397306235],[6.751600259132497,7.835101567406132],[6.75178153596023,7.835102534926984],[6.751780565766757,7.835283307274071],[6.751599288860956,7.8352823397306235]],[[6.751379574463154,7.835038503727757],[6.751539385451048,7.83488083440328],[6.751600259132497,7.835101567406132],[6.751379574463154,7.835038503727757]],[[6.770311059864283,7.839500102556073],[6.770469185155539,7.839659464773132],[6.7702478306800975,7.839720178641639],[6.770311059864283,7.839500102556073]],[[6.76836943163094,7.837198858804248],[6.768630751217871,7.836999918398778],[6.7687954025965595,7.83742419349605],[6.76836943163094,7.837198858804248]],[[6.770404439365681,7.836890418524235],[6.770625792228341,7.836829704138992],[6.770562563997651,7.837049780285017],[6.770404439365681,7.836890418524235]],[[6.768023682536624,7.837217112031537],[6.767865559096134,7.837057749571709],[6.7680869120451765,7.836997036651055],[6.768023682536624,7.837217112031537]],[[6.752950779084243,7.831251712320101],[6.7528312335399745,7.830831630758614],[6.7533156085517705,7.830828530622779],[6.753070831658835,7.831313082399512],[6.752950779084243,7.831251712320101]],[[6.753658665792642,7.831655244678315],[6.754230235230349,7.83358570745256],[6.754965989239061,7.8341185175934465],[6.755048397727014,7.834396845959348],[6.755410951657477,7.8343987777843775],[6.755409983117535,7.834579550589596],[6.7558373491565185,7.834877173657403],[6.7561312184260425,7.835306504960687],[6.756711574931757,7.8354008864099844],[6.757298888345095,7.83578674196034],[6.757494512573427,7.835744101955109],[6.759628211367808,7.8367776553360695],[6.7597480705849256,7.836952762089498],[6.760038869033036,7.837205308451804],[6.7603978821524615,7.837625362331124],[6.760351462676612,7.838165373590224],[6.759539586876432,7.838095972267629],[6.75893474070786,7.837755214873636],[6.758559596660811,7.837585885361151],[6.7579074772127425,7.837218494104652],[6.7571277619018595,7.836660925712165],[6.756491667396434,7.83625888800381],[6.755848064375521,7.836307008575798],[6.7556417053394116,7.836065557060665],[6.755690988117094,7.835492331031436],[6.754031927860896,7.834198233192995],[6.753222843191823,7.83325154813514],[6.753070831658835,7.831313082399512],[6.753658665792642,7.831655244678315]],[[6.752818563388517,7.83297836703807],[6.752660454033204,7.832819001295901],[6.752881801737782,7.83275829599183],[6.752818563388517,7.83297836703807]],[[6.751190155052327,7.83332079285224],[6.750846854371041,7.832986661634841],[6.751249348877618,7.83293036464932],[6.751190155052327,7.83332079285224]],[[6.753711374572789,7.835514016294135],[6.753553264099014,7.835354650537513],[6.753774613253499,7.835293945113649],[6.753711374572789,7.835514016294135]],[[6.752803048939983,7.835870726750062],[6.752644938813181,7.835711360714456],[6.752866288166843,7.835650655860047],[6.752803048939983,7.835870726750062]],[[6.755672706540275,7.836972898858136],[6.755333893348488,7.836800969413685],[6.755761883553616,7.836569983391907],[6.755672706540275,7.836972898858136]],[[6.754969657151478,7.837509281373291],[6.754811545528015,7.837349915409752],[6.75503289582426,7.837289209920952],[6.754969657151478,7.837509281373291]],[[6.757039541903742,7.834949786163045],[6.756964732757273,7.8353602122193635],[6.75680340041592,7.835049073781904],[6.757039541903742,7.834949786163045]],[[6.766470818232682,7.834096000506131],[6.7664075888128625,7.8343160755558845],[6.766249466941445,7.834156713294912],[6.766470818232682,7.834096000506131]],[[6.754703279286325,7.831141004668429],[6.754628469710058,7.831551429922464],[6.754467140022741,7.831240291444172],[6.754703279286325,7.831141004668429]],[[6.758952947619231,7.83843438952846],[6.758794833803426,7.838275024540997],[6.759016184644766,7.838214316933807],[6.758952947619231,7.83843438952846]],[[6.759796567637562,7.838812588265562],[6.759313846178396,7.8386560352434635],[6.759920646208947,7.838580686378966],[6.759796567637562,7.838812588265562]],[[6.755868298353361,7.838960295244546],[6.755710185901136,7.838800929204637],[6.755931537029089,7.838740223427059],[6.755868298353361,7.838960295244546]],[[6.762741483487538,7.839910403714697],[6.762580145425897,7.839599266019419],[6.762816289338471,7.839499975343278],[6.762741483487538,7.839910403714697]],[[6.760032886059058,7.8398863638513685],[6.759874771325616,7.839726998836644],[6.760096122999629,7.839666290837552],[6.760032886059058,7.8398863638513685]],[[6.751175436157951,7.835138930291276],[6.751017327022268,7.834979563892911],[6.751238675950867,7.834918859849922],[6.751175436157951,7.835138930291276]],[[6.761312502263055,7.828888101460122],[6.761344181142692,7.82851953886057],[6.762003873349896,7.828575925209049],[6.7621452449000525,7.829372797827504],[6.761312502263055,7.828888101460122]],[[6.762526417150311,7.829567640715721],[6.762218280097484,7.829976252366971],[6.7621452449000525,7.829372797827504],[6.762526417150311,7.829567640715721]],[[6.762631153083128,7.828201468808979],[6.763058375145517,7.828112191849299],[6.763121935391802,7.8282293005227706],[6.7636635386767745,7.828529099375694],[6.76328180096089,7.828719721547109],[6.762631153083128,7.828201468808979]],[[6.761687134266054,7.828106307355125],[6.760752717453612,7.827963530030399],[6.759828959068698,7.82675682599558],[6.75881493141837,7.826469418433396],[6.758278298545707,7.825834685891228],[6.7590828839523285,7.8257409606649135],[6.759161305884719,7.825843404536584],[6.759548523530321,7.82614475760638],[6.760992683025207,7.826733748905671],[6.761687134266054,7.828106307355125]],[[6.762453531235422,7.825668709047858],[6.763253149283261,7.825582319770856],[6.763574949219455,7.826073599337667],[6.763448468062401,7.8266225451398475],[6.76304102579613,7.826529186286378],[6.762453531235422,7.825668709047858]],[[6.766823950468161,7.825555912360887],[6.766460013693855,7.8248972214567365],[6.766397726933812,7.824069083224859],[6.766620723306947,7.824237598514838],[6.766934337213285,7.824948606215712],[6.7670627987153065,7.825060168740148],[6.767154668394182,7.824829116954552],[6.767244073129268,7.825061128386965],[6.7682113248991245,7.824519499471327],[6.768528571532893,7.8252387352324675],[6.768933422488942,7.825712411315979],[6.769372059255513,7.825679598146812],[6.77039940566326,7.827002172173567],[6.770146834147686,7.827510289366572],[6.769492169535663,7.827158712158729],[6.768602236252026,7.826598220107879],[6.767685188171519,7.826064472919897],[6.767518434279194,7.825869365923989],[6.766823950468161,7.825555912360887]],[[6.7668177370138585,7.824058660753874],[6.767250808405026,7.823795707862628],[6.767421723988519,7.824181675003623],[6.7668177370138585,7.824058660753874]],[[6.7658924845075115,7.824533058542992],[6.765366213645449,7.824301143832628],[6.765729947907666,7.824080292203413],[6.765870926804643,7.823563621056142],[6.765453012529481,7.823355708311526],[6.765585869032802,7.823789166706705],[6.765094766920409,7.824033991800462],[6.7648272730761105,7.823382162852439],[6.765441922096919,7.8230630128854015],[6.7655104379516775,7.823175233223728],[6.765915301032804,7.823315221072256],[6.766155044172809,7.8237078918137914],[6.7658924845075115,7.824533058542992]],[[6.7629325473700765,7.823670409441987],[6.762270674862179,7.823192275878531],[6.762722824599233,7.8230486020632535],[6.7629325473700765,7.823670409441987]],[[6.7614678081238555,7.820437335593708],[6.760882640366391,7.82113230204886],[6.759933621541889,7.820759249171301],[6.760116488582827,7.820567531529711],[6.760673872440532,7.820627178736463],[6.760562021149962,7.820325457499953],[6.760278864396721,7.820245203492424],[6.759870358316492,7.819996499130699],[6.75994672651019,7.819499433643822],[6.759154877712535,7.818883170486932],[6.7592543112765044,7.8182359908679535],[6.758942159486957,7.818147516766935],[6.758780313784434,7.8187628300836645],[6.757959796586934,7.8185120443366944],[6.75817892431705,7.817819706552622],[6.7587618541317145,7.817965781036935],[6.758682746554199,7.817684193901533],[6.758113039635575,7.816897664266864],[6.757222000178382,7.8154169802922056],[6.756783333382595,7.815062820055449],[6.756343951977851,7.814331503008034],[6.758022170072786,7.815204982602656],[6.758411859029178,7.815613802837662],[6.758820086254555,7.815698246287615],[6.758591815764055,7.816158152771283],[6.758769573632088,7.816519594078434],[6.758864850861299,7.816605405222711],[6.759185910642001,7.816967612634241],[6.759403511573234,7.816056897140845],[6.759826338423464,7.816533916190297],[6.76106852565259,7.818322205820525],[6.761293856634172,7.81906388883976],[6.761475127741876,7.819064850232341],[6.761474163731327,7.819245623922312],[6.761655434939914,7.819246585259691],[6.761653507005698,7.819608132679645],[6.761652543004124,7.819788906387115],[6.761772594751918,7.819850273449107],[6.762228229219289,7.820766910273582],[6.761645794349754,7.82105432229282],[6.7614678081238555,7.820437335593708]],[[6.756708533087953,7.815473248045708],[6.756547204419226,7.815162111461079],[6.756783333382595,7.815062820055449],[6.756708533087953,7.815473248045708]],[[6.761725868230841,7.821155135870182],[6.762252465671953,7.821580273426996],[6.7623040992993175,7.822013010024415],[6.762080806341245,7.822583250341571],[6.761800091531807,7.8238446199818705],[6.761176079723495,7.823474351480885],[6.7608773675215845,7.8238423161479185],[6.76046705225905,7.823579010836002],[6.760286203902813,7.82293528470031],[6.7600222240582095,7.822722165687768],[6.760111795604685,7.822033957904978],[6.759750495467619,7.821413472537334],[6.760293923120356,7.821489096565967],[6.761263264314376,7.822203150845722],[6.761901115567657,7.822285711041051],[6.76170372685229,7.821754965425214],[6.761044104528741,7.821222433723604],[6.761645794349754,7.82105432229282],[6.761725868230841,7.821155135870182]],[[6.749786354382652,7.8237425407722165],[6.7496282489898665,7.823583175143496],[6.7498495914170595,7.823522470148986],[6.749786354382652,7.8237425407722165]],[[6.762718968579555,7.8237716972965075],[6.762835808147137,7.824257204511915],[6.762466888881818,7.8245673131021745],[6.762281788239961,7.823881112903544],[6.762718968579555,7.8237716972965075]],[[6.76114143930577,7.824376861350807],[6.760823987594322,7.82406878129585],[6.761267818179666,7.823944777277885],[6.76114143930577,7.824376861350807]],[[6.770360320573717,7.818569538915134],[6.770297097683607,7.818789615932677],[6.770138978107538,7.818630256256683],[6.770360320573717,7.818569538915134]],[[6.778492360491361,7.820662847287525],[6.7780663960425995,7.820437525215272],[6.778327700015163,7.820238574762678],[6.778492360491361,7.820662847287525]],[[6.778267438825132,7.820118207784152],[6.777664780651653,7.819993572749503],[6.777423246236844,7.81987225117106],[6.777337356196689,7.819714006080992],[6.776955031314539,7.819554490789499],[6.776746290808587,7.819929546344035],[6.7762729997809314,7.8195686392145936],[6.775858223564873,7.819438437620346],[6.775794659854019,7.819321330196394],[6.77561338685882,7.819320374919289],[6.7756143447926584,7.8191395994803585],[6.77543307189822,7.819138644147908],[6.775434029887132,7.818957868729686],[6.775525893179431,7.818726813383934],[6.775615302703662,7.818958824039782],[6.775796575543047,7.818959779272183],[6.776491312004418,7.818856045876131],[6.776969345852866,7.81889688609749],[6.777150850470586,7.818689019815744],[6.7781082983794985,7.818526724752719],[6.77841873351803,7.818889920293848],[6.7789404329531235,7.819125371189372],[6.7805790210298555,7.8204916386051435],[6.780849114067131,7.820807628705172],[6.781307769328605,7.821205917018172],[6.781485514085476,7.821718632205485],[6.780956737489749,7.821420761117017],[6.778838389687218,7.820850736194181],[6.778605911356274,7.820323707193875],[6.778327700015163,7.820238574762678],[6.778267438825132,7.820118207784152]],[[6.777360026364515,7.8200923302217085],[6.777201903004502,7.819932972310806],[6.777423246236844,7.81987225117106],[6.777360026364515,7.8200923302217085]],[[6.790764827801711,7.818441620323526],[6.791208654767549,7.818317580608377],[6.791082304778998,7.818749684265905],[6.790764827801711,7.818441620323526]],[[6.792963875173397,7.81518441165299],[6.793401049540075,7.815074959416773],[6.793513195602768,7.815540809079563],[6.793170595082209,7.815689940384918],[6.792963875173397,7.81518441165299]],[[6.779217439410417,7.815445840622513],[6.77805166063008,7.814612272477372],[6.776413750018783,7.8143545379673185],[6.773522798306831,7.814162215384855],[6.773202221494849,7.8137871419536475],[6.773105286455993,7.813702963208796],[6.773001934059489,7.814277248397783],[6.771997169050889,7.814693252618439],[6.7702901623244305,7.814897033046521],[6.769569809738259,7.8148038102346495],[6.7688964424759925,7.814404265350195],[6.768671848497836,7.814121515325403],[6.7678419571236885,7.813937853900885],[6.767157966658488,7.81353200573252],[6.766579933304037,7.813600606612186],[6.766258111557584,7.813558956561364],[6.765959532483262,7.812841721590325],[6.76495262738798,7.812618878607525],[6.76453339098034,7.812091061017772],[6.764132459053263,7.8117673787667],[6.764052385614946,7.811666565947886],[6.763689849164465,7.811664647102918],[6.763690811276031,7.811483873073397],[6.763328275073044,7.811481953962904],[6.763329237317305,7.811301179976639],[6.762684921925408,7.8111326411063065],[6.762425785363067,7.810754059323034],[6.7623255531143975,7.810673138479902],[6.761805760906509,7.809927270912466],[6.760960129980626,7.808861253499496],[6.760392646800239,7.8086192284477365],[6.760184109695315,7.808088404383237],[6.760626956086018,7.80814572433876],[6.760899035226977,7.808113435259081],[6.761552692742464,7.808198037827428],[6.761713230231323,7.808400159571643],[6.76189449679189,7.808401119481916],[6.7619863627443655,7.808170068427768],[6.762075763375429,7.808402079314606],[6.762257029981937,7.808403039069704],[6.762256067638225,7.808583812947649],[6.762255105271543,7.808764586823915],[6.762436372056593,7.8087655465463985],[6.762435409744742,7.80894632044347],[6.762796981360162,7.8091290136410265],[6.762797943539377,7.808948239700636],[6.76279890569563,7.808767465758603],[6.762617638864628,7.808766506191297],[6.762620525428995,7.808224184422663],[6.762439258854346,7.808223224845213],[6.762440221074329,7.808042450941463],[6.762441183271348,7.807861677036079],[6.762622449690416,7.807862636568561],[6.762623411786679,7.807681862639032],[6.763167210948322,7.807684740703568],[6.763166249085422,7.807865514700537],[6.764181167500001,7.807616269199838],[6.764255771264582,7.807509720604602],[6.764256732614858,7.807328946469496],[6.7646192654683235,7.8073308637705034],[6.764800531929483,7.807331822304646],[6.764799570812563,7.80751259650714],[6.7647986096727,7.807693370707958],[6.764797648509894,7.807874144907136],[6.764978915227356,7.807875103431082],[6.7649779541193995,7.808055877651055],[6.765422280441138,7.807888241492488],[6.7658330501333985,7.808405400825532],[6.767548040612772,7.8087123867271915],[6.768809484755274,7.8097307702313925],[6.769187579943377,7.811076474676409],[6.769580496875773,7.811029839773225],[6.770213884220031,7.8120823026849795],[6.770655258000455,7.812344188768708],[6.770936759376901,7.81242606470292],[6.770675683947373,7.811964376194156],[6.770234427858974,7.8115948879746195],[6.7699385429802925,7.811073308304384],[6.769454198159085,7.809943200404055],[6.768623732602695,7.808935352802845],[6.767627116865024,7.808212027558813],[6.765594928876461,7.807320293325366],[6.765194531499447,7.806614451412983],[6.765562845259019,7.806176998135263],[6.765940553484497,7.80705831886776],[6.766396835625497,7.806735574671038],[6.766155922596119,7.806533840540174],[6.766079002263019,7.80553078618364],[6.766079962583229,7.80535001180572],[6.765649731658633,7.805082491833243],[6.765794357971162,7.804682264809039],[6.7663171133727715,7.804847682849261],[6.765776582442111,7.804174873528871],[6.766043475517411,7.8038000164329056],[6.76539858375295,7.803577031976881],[6.765242354163875,7.803067309332095],[6.765548650461976,7.802997072152139],[6.765465274409735,7.802899519555813],[6.765443038082726,7.802603908752384],[6.764913128259572,7.801140910738585],[6.764932919718359,7.80091054756714],[6.764688218245223,7.800234959625066],[6.763969125890936,7.799910385333377],[6.7636737665336755,7.798912908403267],[6.763283032351877,7.798573564971921],[6.76333111567027,7.798013923921898],[6.763269110692442,7.797189638090203],[6.762765430659023,7.796752202439347],[6.762461713842953,7.796396837032822],[6.762172368809664,7.795419647822128],[6.76149733036347,7.795114953518531],[6.761785916114768,7.794758457648867],[6.763621505471467,7.796071091664718],[6.764040835023102,7.795840657226088],[6.764262643160582,7.795859609872522],[6.764202937521578,7.796554567684888],[6.764432678833044,7.79697039624601],[6.765495031684295,7.797295514731975],[6.766736781918634,7.797757747161703],[6.767204974077944,7.7983055493588065],[6.767340435867192,7.798407158163266],[6.768001267926993,7.799456281715059],[6.7675607877787805,7.799572884253918],[6.7678469688420355,7.800009789705625],[6.76791947939635,7.80029789544469],[6.76802631489039,7.8003722952922585],[6.768172295144075,7.800767732140572],[6.7685139059337205,7.801005626980885],[6.768974130450353,7.801819720877476],[6.769694331850793,7.8020928128831635],[6.770155662015936,7.802766770267514],[6.770369335165374,7.802915569377393],[6.7708024622715,7.803567136232339],[6.772545008781015,7.805073255064941],[6.772967121306644,7.805567123845736],[6.773148388043447,7.8055680785876165],[6.773147430733244,7.805748853837898],[6.773507583627344,7.805932943276314],[6.773688359946272,7.806294043607628],[6.773869627085574,7.8062949981287515],[6.774050894247725,7.806295952572305],[6.7740499372349765,7.806476727927769],[6.774231204497751,7.806477682316125],[6.774230247539934,7.806658457692375],[6.774411514903331,7.806659412025525],[6.774410558000449,7.80684018742246],[6.774409601074724,7.8070209628177185],[6.77477213618115,7.807022871340757],[6.774771179388149,7.807203646779097],[6.774952447053416,7.807204600946614],[6.7749514903153605,7.807385376405679],[6.776549838560803,7.808626662623417],[6.777923167421623,7.810387337340606],[6.77865041864112,7.8112881749260765],[6.778736144494935,7.81156324236242],[6.778833080655756,7.811647420000266],[6.77929892581601,7.812397913049995],[6.7795286637627585,7.814680291790551],[6.779217439410417,7.815445840622513]],[[6.793552401791001,7.8132060362575455],[6.793712196317084,7.81304834401985],[6.793773091244762,7.813269076477028],[6.793552401791001,7.8132060362575455]],[[6.7940595568724,7.813346048608506],[6.794572363322858,7.813559339852364],[6.795611130960829,7.813732381515628],[6.795837859829295,7.8142165775532035],[6.793916681605948,7.813823605839315],[6.793773091244762,7.813269076477028],[6.7940595568724,7.813346048608506]],[[6.788107538651471,7.813681402558517],[6.786843946483301,7.8131894150749375],[6.785629320022039,7.811155960941794],[6.785369737422915,7.810232204341557],[6.785070701733311,7.80971871281812],[6.784734266603018,7.808521447402427],[6.7844535075971475,7.8083779511859035],[6.78437458616547,7.807977217223797],[6.784193317003924,7.8079762670012265],[6.784194269843079,7.807795490409268],[6.783996612937842,7.807641679781055],[6.783516567996035,7.80645418550964],[6.783658086489609,7.8063464270820155],[6.7836590393574046,7.806165650541926],[6.783436641629822,7.806077379224032],[6.7837504852237105,7.805934448394825],[6.783840307672863,7.80616660077456],[6.784433944143386,7.806562314144833],[6.7850319020363905,7.806789027456834],[6.7855633240505595,7.807138123216898],[6.78564727966376,7.807260759519379],[6.785828548696022,7.807261709032268],[6.785827596625193,7.8074424858295295],[6.786008865757971,7.807443435287087],[6.786007913742205,7.807624212104916],[6.786689040633379,7.808020616144378],[6.788211384672641,7.809289927124162],[6.78871364035876,7.810169324936672],[6.788894911021976,7.810170273486223],[6.788893008776192,7.810531827781968],[6.788891106439624,7.810893382071021],[6.788991342866946,7.810974298045128],[6.789438132429687,7.812564209301467],[6.789088341759436,7.8134576966211196],[6.788107538651471,7.813681402558517]],[[6.791391370373961,7.808233054703143],[6.791992586982388,7.808370770367356],[6.792237957486377,7.809020547665658],[6.791688190308181,7.809716370245256],[6.79125808177281,7.80891715545996],[6.791026392582539,7.808825553360331],[6.791259031691331,7.808736378009329],[6.791391370373961,7.808233054703143]],[[6.792487381067935,7.808475235438657],[6.79265974825085,7.808137339352118],[6.79289141492752,7.808564123133227],[6.792487381067935,7.808475235438657]],[[6.793374012079458,7.8086273746819135],[6.793493916496065,7.8089874392147545],[6.792786475671276,7.809339718803291],[6.792466387488456,7.808864863701535],[6.792829889039199,7.808683852783933],[6.79289141492752,7.808564123133227],[6.793374012079458,7.8086273746819135]],[[6.790644255526885,7.8084208699547295],[6.790482899265319,7.808109739931639],[6.790719021133445,7.808010426134623],[6.790644255526885,7.8084208699547295]],[[6.764857197222069,7.796666141421774],[6.764793975471568,7.796886217927484],[6.764635869987324,7.796726858985833],[6.764857197222069,7.796666141421774]],[[6.765724401088573,7.796551826817059],[6.765945728228998,7.796491108612261],[6.76588250705416,7.7967111854510485],[6.765724401088573,7.796551826817059]],[[6.760935876046422,7.794908823333061],[6.76061844064705,7.794600750457234],[6.761062237607114,7.7944767376956845],[6.760935876046422,7.794908823333061]],[[6.759368632419604,7.7945074119402795],[6.7592105302354755,7.794348046273203],[6.75943185607989,7.7942873341677625],[6.759368632419604,7.7945074119402795]],[[6.758477903708272,7.794694796491491],[6.758279630259464,7.794372777532279],[6.758706815511846,7.794283496741784],[6.758477903708272,7.794694796491491]],[[6.764531970936083,7.801325055074571],[6.7646900776031,7.801484414501487],[6.764468747634709,7.801545131240599],[6.764531970936083,7.801325055074571]],[[6.764349222141566,7.801824779707386],[6.765052418671398,7.8023144891286265],[6.764861107432054,7.802705716622069],[6.764028911168283,7.802158980316833],[6.763740809447547,7.802083621251105],[6.76373984852954,7.802264395366922],[6.763921112698747,7.802265353659796],[6.763920151835522,7.802446127796383],[6.764160247925448,7.80256885808127],[6.764280758913889,7.802809592552612],[6.764462023385125,7.802810550680307],[6.764461062686263,7.802991324879354],[6.764642327258201,7.802992282951981],[6.7646413666141365,7.80317305717183],[6.764822631286757,7.803174015189385],[6.764821670697491,7.803354789430059],[6.765002935470794,7.803355747392539],[6.765001014378929,7.803717295913763],[6.76510124604478,7.803798215822662],[6.765336315615629,7.805756752742212],[6.765170751785658,7.805887545101198],[6.7651697910078115,7.806068319361884],[6.7651678693833075,7.806429867878237],[6.764986603265162,7.80642890961153],[6.764984681393352,7.806790458076392],[6.764803415142593,7.8067894996872],[6.764802454094498,7.806970273894656],[6.764439921506251,7.8069683568386425],[6.764258655246565,7.806967398194279],[6.764257693942185,7.807148172332704],[6.763895161336056,7.80714625476633],[6.763532628821732,7.807144336889664],[6.763329725389436,7.80739429794082],[6.762443107596485,7.80750012922034],[6.762261841355977,7.807499169655243],[6.762260879127105,7.80767994354145],[6.761717080309978,7.807677064313244],[6.761718042772208,7.807496290494502],[6.76088614035497,7.8074180487498195],[6.760198907354445,7.806966543538374],[6.760017998788001,7.8064764485576195],[6.759805286924748,7.806146871137434],[6.759734711380098,7.805497218205143],[6.759553446339802,7.8054962577240365],[6.759555372556224,7.8051347105850395],[6.759441755492981,7.805032381927575],[6.758945473028843,7.803398827378149],[6.758402121431123,7.801862990559279],[6.7589357563845525,7.802155862210314],[6.759209214624884,7.802059639296495],[6.759210177463146,7.801878865741319],[6.759572704364917,7.801880786035648],[6.759573667024728,7.801700012433804],[6.7582162891865485,7.801451350801515],[6.757429410852186,7.799598189623992],[6.757132156657811,7.799074147950583],[6.757051398569531,7.7987941913677306],[6.75705236192616,7.798613418053054],[6.756901284635383,7.798472319254503],[6.7554345750277465,7.794436579790691],[6.755561292790512,7.793637558150599],[6.75580858354744,7.793906588248811],[6.7566013702022945,7.794377079394361],[6.757464117740502,7.795182850378146],[6.759943774799274,7.797907235035014],[6.760230323883321,7.798174858077084],[6.760403678264776,7.79836344499885],[6.760590924262484,7.79853832410747],[6.760943617804886,7.7990894176952885],[6.761130864332574,7.799264296714555],[6.7621417457157325,7.800364011598758],[6.76280767435576,7.80034121491424],[6.763831331508619,7.801454817911364],[6.764468747634709,7.801545131240599],[6.764349222141566,7.801824779707386]],[[6.76032277204536,7.7971845091664616],[6.760498310662016,7.797617044198047],[6.759883959576438,7.7972974852181],[6.76032277204536,7.7971845091664616]],[[6.761789201228618,7.794119023303346],[6.762332982559363,7.794121897471948],[6.762331061477669,7.794483445488125],[6.761787279681026,7.7944805711846055],[6.761789201228618,7.794119023303346]],[[6.758232939871915,7.7912748264775455],[6.758313962186997,7.790747390309781],[6.759167195641167,7.79073329628678],[6.758903464934313,7.791392078712999],[6.758232939871915,7.7912748264775455]],[[6.759364559066996,7.791476543904748],[6.759722650458639,7.791683612770394],[6.759892531066415,7.791298557811964],[6.7601078657409435,7.791122084493795],[6.760282234793139,7.789501193686327],[6.760254374028057,7.789213470727358],[6.760455579831885,7.788757406716238],[6.760669865375493,7.789017482185547],[6.761013596967241,7.788426222653365],[6.760972698873812,7.78800388367882],[6.761224705581848,7.786683980450429],[6.760959091533972,7.785716776799843],[6.761240508328675,7.785904553746094],[6.76169685718039,7.786969399557923],[6.762259085923977,7.786748198811295],[6.762293021285642,7.786432737226975],[6.762093951323164,7.786081801730785],[6.762114663401426,7.785889259517437],[6.761835290807653,7.785441872164677],[6.761654034134954,7.785440915033098],[6.7614727774852215,7.7854399578241615],[6.761475656792159,7.784897635886269],[6.7616569132092215,7.784898593027729],[6.7618381696492555,7.78489955009184],[6.7622006825982215,7.784901463988023],[6.762033084391973,7.78442774425377],[6.762534871270278,7.784460234123577],[6.76331635792909,7.7848891242915315],[6.763927275622627,7.786499450702743],[6.763765125615314,7.788990715748811],[6.764157871940729,7.788969451834586],[6.763892136724768,7.78969595536034],[6.763616433237735,7.790850051833473],[6.763885464115753,7.792953097567136],[6.763873574692661,7.7931357505114],[6.763883418212958,7.793316581768607],[6.76386783353587,7.793556012148086],[6.762789523449018,7.793486192938222],[6.762605668893179,7.793496150584749],[6.761171692716145,7.793234179854959],[6.760621377301295,7.79293215283815],[6.759892017324046,7.792971641780994],[6.759150626811915,7.792923633481729],[6.759176687032743,7.79340242562096],[6.759899321024745,7.793737844232278],[6.759879321484505,7.794045053549621],[6.759252095994462,7.7940044402288695],[6.758526826625812,7.794043699645242],[6.758105244889635,7.793114640878923],[6.758466846658283,7.79179617815564],[6.758817424946441,7.791487099400663],[6.758903464934313,7.791392078712999],[6.759364559066996,7.791476543904748]],[[6.755359048174336,7.791978421517011],[6.754846888677088,7.791637718629041],[6.755458587292687,7.7915546155187325],[6.755359048174336,7.791978421517011]],[[6.757110483152477,7.7933146026957525],[6.757610658843703,7.793205556058159],[6.7578773965311925,7.793743985825119],[6.756806410112978,7.793498575671812],[6.75653385454302,7.793100371456934],[6.756900955230298,7.79300848438586],[6.757110483152477,7.7933146026957525]],[[6.764176288464413,7.788346696647909],[6.7641130688612785,7.788566776143059],[6.763954965965104,7.788407412331073],[6.764176288464413,7.788346696647909]],[[6.764181083213402,7.787442825189721],[6.76410630238532,7.787853255664755],[6.763944972195102,7.787542125741723],[6.764181083213402,7.787442825189721]],[[6.760033963401986,7.785522746194209],[6.760120304614641,7.786246317989132],[6.760096797638273,7.786426972631077],[6.760150759773573,7.786879205018584],[6.760084976032938,7.787384787690323],[6.7595228177527975,7.787312026718046],[6.75913789170748,7.784572545929326],[6.759319199670715,7.7831791054788],[6.759672697836278,7.7830803225670735],[6.759747004548439,7.784265774406672],[6.760128910447201,7.784793043135433],[6.760033963401986,7.785522746194209]],[[6.76021070344174,7.7841678384198625],[6.760147483185676,7.78438791695272],[6.759989383330237,7.784228552502193],[6.76021070344174,7.7841678384198625]],[[6.760974869431363,7.782539501584985],[6.760646968653265,7.782264907848617],[6.760685605629262,7.781905705543422],[6.759944785000416,7.779986561606726],[6.760105679149547,7.778490793704094],[6.760367468625536,7.778301714632911],[6.7606808477888585,7.779388042855074],[6.760877037627544,7.779733909181701],[6.76103759990787,7.780474600213181],[6.761414085709834,7.7810021973400865],[6.76188097872693,7.782091653370642],[6.762312687787646,7.782453172931105],[6.7623944086747185,7.782552357455486],[6.7625756641985575,7.782553313917938],[6.762573746211188,7.782914862191033],[6.762672321901969,7.782997408271021],[6.7628317440846475,7.783953563498248],[6.76171125307022,7.7842577894973],[6.760974869431363,7.782539501584985]],[[6.75559202817824,7.788883281578608],[6.755433929331735,7.788723915468434],[6.755655251966952,7.788663204637812],[6.75559202817824,7.788883281578608]],[[6.754911317744056,7.787639213501692],[6.754360646798944,7.786118764060264],[6.754126126156676,7.783603089495413],[6.7541502569988205,7.78332227408049],[6.754047169969713,7.781951580817657],[6.75424178385811,7.781786144192201],[6.754242746291416,7.781605371082576],[6.754379431960281,7.781161150307805],[6.754606216771962,7.781426517507313],[6.7546052545167345,7.781607290663715],[6.754604292238466,7.781788063818461],[6.754603329937156,7.781968836971576],[6.754682802569564,7.783449473504948],[6.75515360758659,7.7851253740272135],[6.75549995905248,7.78491258350564],[6.755156018388285,7.784321881121558],[6.755439697348298,7.78384637402013],[6.7553617993666455,7.783193497917988],[6.755766220438946,7.782959277445533],[6.756311200858528,7.782733628770499],[6.755887371219278,7.782114544649807],[6.755037899858243,7.781593775270565],[6.755138934236831,7.780817324157121],[6.754708594102292,7.780761625833109],[6.754609103399401,7.780884198028172],[6.754205754421064,7.781036381454014],[6.753958168509014,7.779274220851059],[6.754021639521568,7.77878645908695],[6.753795435862427,7.778813303888162],[6.753568431136845,7.77826793579947],[6.753671282328797,7.777477520749508],[6.752831009152204,7.776799087043253],[6.753029758362152,7.775271712772408],[6.752890447203458,7.774104104665229],[6.753014392397475,7.774006184650676],[6.753016316343414,7.773644638603523],[6.7530172782818,7.773463865577442],[6.752803261624354,7.773277982424098],[6.752663435245799,7.771834989734063],[6.7526643971084646,7.771654216736588],[6.752463431762632,7.771473208002986],[6.752278970237863,7.768855203335056],[6.752676899224786,7.769304167619269],[6.75280309122276,7.769196891440783],[6.752756805594916,7.768581477935807],[6.7527800934050415,7.768310433951639],[6.7527533303489555,7.767954589557268],[6.753018218238649,7.767729400179668],[6.752772765068506,7.767051673381375],[6.752558366212029,7.766327542669374],[6.753056934380584,7.763782193603976],[6.753394807048551,7.760643332840113],[6.753699337272527,7.760006220885502],[6.7538104969597015,7.7606328070462185],[6.753922275245002,7.76070232037177],[6.754277955675655,7.761775275596275],[6.754343673554212,7.762624185369034],[6.754342713540334,7.762804958652261],[6.7543398333604605,7.763347278491945],[6.754571489428381,7.763438891539571],[6.754338873254422,7.763528051768545],[6.754336952973229,7.763889598316753],[6.754448437652966,7.763986429985595],[6.754417711196335,7.764344105944848],[6.7547395754426365,7.766488412111103],[6.755139656963475,7.767593071489708],[6.755660248783954,7.769417057096651],[6.756352908368513,7.771082066459359],[6.757660938851466,7.773197082069549],[6.75799249892201,7.77394884314603],[6.758185381921111,7.7742979690617915],[6.758434052916291,7.774861788535019],[6.758723378420044,7.775385482937043],[6.758983202518527,7.77638786362106],[6.759164454970923,7.776388820787148],[6.759162535600993,7.776750368317803],[6.75916061613909,7.777111915841879],[6.759341868924352,7.77711287302076],[6.759339949525424,7.777474420583213],[6.7595716143374345,7.7775660333646925],[6.759338989791472,7.777655194361969],[6.759251993762315,7.777930989785959],[6.758914079161693,7.77854343247418],[6.758518339324238,7.779554123058491],[6.75814088877483,7.780445848562416],[6.75796279677935,7.78176812551582],[6.758599257160948,7.7823413667109165],[6.758837031929247,7.785883063235712],[6.759183083996273,7.787541417349218],[6.759364058764705,7.789035564593735],[6.758684180023817,7.7902677326717065],[6.7577640206970635,7.790567458042239],[6.756519756041418,7.789595193836066],[6.755845795408308,7.788834824582314],[6.755655251966952,7.788663204637812],[6.754911317744056,7.787639213501692]],[[6.754829762917232,7.780947249461357],[6.754669979087074,7.781104932100036],[6.754609103399401,7.780884198028172],[6.754829762917232,7.780947249461357]],[[6.754522318181012,7.790906932546048],[6.754117191445931,7.790043611486535],[6.755104739082322,7.78992573597327],[6.755206823701529,7.790385234578254],[6.754522318181012,7.790906932546048]],[[6.759385025317243,7.790408006317352],[6.759815526752885,7.790312230765736],[6.75972719700415,7.790911316132924],[6.759385025317243,7.790408006317352]],[[6.7603996395155885,7.7827226051324905],[6.760336419782724,7.782942683797006],[6.760178320221856,7.782783319540872],[6.7603996395155885,7.7827226051324905]],[[6.758954399987445,7.781811075210951],[6.758891179834182,7.7820311534927855],[6.758733081217605,7.781871788943524],[6.758954399987445,7.781811075210951]],[[6.7589611224292,7.780545659306451],[6.75882825234155,7.781518375374335],[6.758148126015283,7.781311531361062],[6.758512290048714,7.781001959448731],[6.758682056593318,7.7806278489051115],[6.7589611224292,7.780545659306451]],[[6.747015325383267,7.760575653805603],[6.746510898194618,7.759940491367436],[6.746696226378491,7.758516223494284],[6.746652988167499,7.75815382159459],[6.746904980661254,7.75643463122002],[6.747127547760963,7.756258789406974],[6.747406121851799,7.756882989406556],[6.747611971635773,7.758101040028865],[6.747511019301127,7.758876875747569],[6.7471913541375885,7.759412737465837],[6.747015325383267,7.760575653805603]],[[6.747010339380404,7.762281041817694],[6.746668199244617,7.761777732073028],[6.747098668772164,7.761681961800336],[6.747010339380404,7.762281041817694]],[[6.74984534478858,7.772465850524159],[6.749850620647599,7.772814369957533],[6.7498436279197245,7.773085499505849],[6.749848037434813,7.773377024776219],[6.750206349266717,7.7740798901742485],[6.750421879901332,7.774529037915923],[6.750749366242122,7.773540434410354],[6.75108465878682,7.773184274169875],[6.7511884057616784,7.776527405163318],[6.751187442656684,7.776708177935425],[6.751287606256925,7.7789684101814665],[6.750898159997469,7.779324475227255],[6.750635146152864,7.779604585979715],[6.750446054835766,7.779777470364623],[6.750444127151989,7.780139015666804],[6.750262874178325,7.780138054317504],[6.7502619102243075,7.780318826943518],[6.750168747341881,7.781133642075961],[6.749794528763314,7.781308815270147],[6.749377332180208,7.780439411665616],[6.749097641191489,7.778051120155631],[6.748916603783666,7.777330668326891],[6.748716209298997,7.776491439971811],[6.748753029841237,7.775064183074364],[6.7496760649108944,7.771549810195388],[6.749858525323609,7.770643269293372],[6.750111360135383,7.76991911446009],[6.750451675969135,7.769927846438941],[6.74984534478858,7.772465850524159]],[[6.750852864660306,7.77146384688466],[6.751108970425305,7.77269125247674],[6.750849252410647,7.7731761308966325],[6.750404103618572,7.771599458308685],[6.750852864660306,7.77146384688466]],[[6.750135746976491,7.782738829137336],[6.7495446063878735,7.781659356725047],[6.750073908329178,7.781583273671805],[6.750317770220418,7.782146011156652],[6.750135746976491,7.782738829137336]],[[6.757937480363951,7.8025952358493695],[6.7581187439532435,7.802596196668033],[6.758116817136908,7.802957743493146],[6.758218698528925,7.803037034839642],[6.758594710396763,7.80367166170126],[6.75855128609277,7.803954328374118],[6.7585824349669315,7.8041725554102594],[6.7589374203294375,7.804122161201458],[6.75911827417406,7.805219175531335],[6.758945161862879,7.805752563942298],[6.75836165714961,7.804990308927312],[6.757695810579005,7.803139793365393],[6.757575916861255,7.802412540632],[6.757576880445092,7.8022317672829145],[6.757395617080303,7.8022308062767385],[6.75739947149641,7.801507712953773],[6.75715427926988,7.801316884763584],[6.7573831829665565,7.800886539994998],[6.757582661464807,7.801147127153299],[6.75778312003415,7.801308969338892],[6.757937480363951,7.8025952358493695]],[[6.7599589363207775,7.807199250450416],[6.759292393584171,7.806574564363515],[6.759548630396327,7.806400125542383],[6.759834806980929,7.806837035264235],[6.7599589363207775,7.807199250450416]],[[6.765717431073758,7.805348096239781],[6.765654207138421,7.805568172549028],[6.765496098906975,7.805408812973351],[6.765717431073758,7.805348096239781]],[[6.759958372908592,7.808808764360213],[6.7594606535159585,7.808399283083485],[6.759720262991663,7.808208821873501],[6.759958372908592,7.808808764360213]],[[6.761414274951002,7.8104658952466695],[6.760539821329263,7.8096789416501915],[6.7608011196319655,7.809480001019541],[6.7612626480756735,7.810103534238689],[6.761414274951002,7.8104658952466695]],[[6.764284705678869,7.812823669453536],[6.763967257327389,7.812515592048859],[6.764411074726715,7.812391580943359],[6.764284705678869,7.812823669453536]],[[6.765473394656528,7.8142542361760485],[6.765164393527857,7.814467806236233],[6.763960233465307,7.81321787258046],[6.764769764808514,7.813116595961128],[6.765473394656528,7.8142542361760485]],[[6.756181124395446,7.8143761387052715],[6.756023018404219,7.8142167757217225],[6.756244355532894,7.814156065680362],[6.756181124395446,7.8143761387052715]],[[6.75741910755198,7.82016762069708],[6.757260999402018,7.8200082574660446],[6.75748233983144,7.819947547605443],[6.75741910755198,7.82016762069708]],[[6.758141295278679,7.820713792789476],[6.757983186630282,7.820554429697046],[6.758204527373893,7.820493719510718],[6.758141295278679,7.820713792789476]],[[6.751977112158407,7.820861778829477],[6.751819006472086,7.820702414074524],[6.752040347270191,7.820641707400057],[6.751977112158407,7.820861778829477]],[[6.759125190139564,7.825260736093806],[6.758965385890761,7.825418410210919],[6.75890450797903,7.825197677479123],[6.759125190139564,7.825260736093806]],[[6.758287757370296,7.825036341558474],[6.758605399903985,7.824760694139565],[6.75890450797903,7.825197677479123],[6.758287757370296,7.825036341558474]],[[6.762529981519464,7.825216926069963],[6.7624667500935525,7.825437000392856],[6.762308638068043,7.825277637987416],[6.762529981519464,7.825216926069963]],[[6.757833813620122,7.828044476767813],[6.758056650037618,7.829019811312293],[6.757408794750257,7.828625387258578],[6.7572595136008085,7.827719828933143],[6.757833813620122,7.828044476767813]],[[6.756715690709468,7.827716935916055],[6.756717624923179,7.827355389861702],[6.756309123156173,7.827259957126252],[6.756465958593675,7.826744433569356],[6.75671859199549,7.82717461683204],[6.756899866035617,7.827175581181225],[6.756898899041293,7.82735635423343],[6.757139004122343,7.827479091833028],[6.7572595136008085,7.827719828933143],[6.756715690709468,7.827716935916055]],[[6.80222877718213,7.813714355463659],[6.802070643482045,7.813555004865139],[6.802291983153201,7.81349426871403],[6.80222877718213,7.813714355463659]],[[6.802944416680921,7.815525916010127],[6.8027862821435505,7.815366565427417],[6.80300762284467,7.815305829142274],[6.802944416680921,7.815525916010127]],[[6.766083768159795,7.827976642094494],[6.765740455305762,7.8276425222012245],[6.76614294651814,7.827586208258997],[6.766083768159795,7.827976642094494]],[[6.768576824957896,7.830570320842402],[6.767607343375386,7.829780431197509],[6.767324550139302,7.829161313627127],[6.767766726334543,7.829041043744755],[6.767844191481026,7.829324261166408],[6.76822924020882,7.829483803354854],[6.768874574690349,7.830326764243652],[6.768576824957896,7.830570320842402]],[[6.779708980147447,7.833262069991818],[6.779708022227665,7.833442845814743],[6.77952674264793,7.833441890506698],[6.779527700645768,7.833261114706086],[6.779708980147447,7.833262069991818]],[[6.779928717363494,7.833505895622566],[6.779768909158286,7.833663578866091],[6.779708022227665,7.833442845814743],[6.779928717363494,7.833505895622566]],[[6.778910922552699,7.833099803469302],[6.779228563527058,7.832824139184254],[6.779527700645768,7.833261114706086],[6.778910922552699,7.833099803469302]],[[6.776845390201407,7.834612493821038],[6.776950679985471,7.835319779916817],[6.776094176132791,7.834317719151751],[6.77574381234192,7.83352344708599],[6.776082434966522,7.833423724864177],[6.776845390201407,7.834612493821038]],[[6.781846650972732,7.834274347594894],[6.782874061462738,7.835008952124303],[6.783500551724615,7.836174533468797],[6.783499595079887,7.8363553097332534],[6.783596536840341,7.836439487712836],[6.783763020739468,7.8366879036568555],[6.783373382737719,7.836980657188481],[6.783053649689565,7.836255849275658],[6.782108790183942,7.8351044463251585],[6.781846650972732,7.834274347594894]],[[6.781445151735617,7.836022562498202],[6.781287022082736,7.835863204112368],[6.781508374395669,7.835802483059917],[6.781445151735617,7.836022562498202]],[[6.777335084092227,7.836503604540314],[6.777334124746993,7.836684380043111],[6.777152844058495,7.836683423321093],[6.777153803481816,7.836502647840633],[6.777335084092227,7.836503604540314]],[[6.777515405458331,7.836685336687258],[6.777514446168366,7.836866112210661],[6.777333165378939,7.83686515554418],[6.777334124746993,7.836684380043111],[6.777515405458331,7.836685336687258]],[[6.7777351423119105,7.836929163227364],[6.777575331842513,7.837086845361868],[6.777514446168366,7.836866112210661],[6.7777351423119105,7.836929163227364]],[[6.776818926508003,7.836666443623979],[6.776550367547859,7.836253685253661],[6.77694182519246,7.836079237038001],[6.777153803481816,7.836502647840633],[6.776818926508003,7.836666443623979]],[[6.77741109219291,7.83751302396827],[6.778113784603504,7.837413258133011],[6.778232856072279,7.838135367340574],[6.778231896912184,7.838316142940026],[6.778140027603096,7.838547197892092],[6.778050615406715,7.838315186406427],[6.77776744355582,7.838234939526614],[6.777110811111246,7.837744080622458],[6.776991820667503,7.836965381960137],[6.77741109219291,7.83751302396827]],[[6.778737284914455,7.838076142004683],[6.778897095552955,7.837918459418859],[6.77895798200981,7.838139192606792],[6.778737284914455,7.838076142004683]],[[6.779370442125837,7.838367483203841],[6.779047521891732,7.838565234166059],[6.77895798200981,7.838139192606792],[6.779370442125837,7.838367483203841]],[[6.7800667501729155,7.834167859650857],[6.780067708027754,7.833987083789989],[6.780248987910063,7.833988038931432],[6.780248030133286,7.8341688148146105],[6.7800667501729155,7.834167859650857]],[[6.779847012617167,7.833924033979545],[6.7800068209283415,7.833766350727753],[6.780067708027754,7.833987083789989],[6.779847012617167,7.833924033979545]],[[6.780468725782109,7.834231864467101],[6.780308917368524,7.8343895478899865],[6.780248030133286,7.8341688148146105],[6.780468725782109,7.834231864467101]],[[6.783265586586265,7.8398435156305295],[6.783112505024964,7.840042735152747],[6.782743308310649,7.839503430721921],[6.783121720578488,7.839245820887955],[6.783265586586265,7.8398435156305295]],[[6.762920419178114,7.830713562604742],[6.762602962302216,7.830405481561213],[6.763046800139145,7.830281477449682],[6.762920419178114,7.830713562604742]],[[6.77036586487256,7.83796227506527],[6.770204520653101,7.837651139056455],[6.770440662736861,7.83755184310086],[6.77036586487256,7.83796227506527]]]}}]}