{"type":"FeatureCollection","features":[{"type":"Feature","properties":{"name":"Numai","type":"SETTLEMENT"},"geometry":{"type":"Point","coordinates":[6.772094121526465,7.821624510605406]}},{"type":"Feature","properties":{"name":"Kpatakpoli","type":"SETTLEMENT"},"geometry":{"type":"Point","coordinates":[6.79999968900006,7.766666604000022]}},{"type":"Feature","properties":{"name":"Atakpa","type":"SETTLEMENT"},"geometry":{"type":"Point","coordinates":[6.783333024000058,7.783333207000055]}},{"type":"Feature","properties":{"name":"Lokoja","type":"SECONDARY TOWN"},"geometry":{"type":"Point","coordinates":[6.733332993000033,7.799999913000022]}}]}